{"version": 0.6, "generator": "Overpass API 0.7.61.5 4133829e", "osm3s": {"timestamp_osm_base": "2023-09-27T02:02:36Z", "copyright": "The data included in this document is from www.openstreetmap.org. The data is made available under ODbL."}, "elements": [{"type": "node", "id": 346369316, "lat": 30.4464073, "lon": -97.7904075}, {"type": "node", "id": 346369317, "lat": 30.4463267, "lon": -97.7903341}, {"type": "node", "id": 346369318, "lat": 30.4464141, "lon": -97.790205}, {"type": "node", "id": 346369319, "lat": 30.4464947, "lon": -97.7902784}, {"type": "node", "id": 346369689, "lat": 30.4458241, "lon": -97.7902409}, {"type": "node", "id": 346369691, "lat": 30.4457566, "lon": -97.7901784}, {"type": "node", "id": 346369693, "lat": 30.4458598, "lon": -97.7900288}, {"type": "node", "id": 346369694, "lat": 30.4459271, "lon": -97.790091}, {"type": "node", "id": 346375112, "lat": 30.446063, "lon": -97.7879777}, {"type": "node", "id": 346375113, "lat": 30.445872, "lon": -97.7877438}, {"type": "node", "id": 346375114, "lat": 30.4459686, "lon": -97.7875848}, {"type": "node", "id": 346375117, "lat": 30.4460014, "lon": -97.7876249}, {"type": "node", "id": 346375118, "lat": 30.4460679, "lon": -97.7875518}, {"type": "node", "id": 346375120, "lat": 30.4462274, "lon": -97.7877471}, {"type": "node", "id": 346375121, "lat": 30.4461006, "lon": -97.7878864}, {"type": "node", "id": 346375122, "lat": 30.4461221, "lon": -97.7879127}, {"type": "node", "id": 858687863, "lat": 30.4491846, "lon": -97.7920347, "tags": {"amenity": "restaurant", "name": "Kobe Japanese Steakhouse"}}, {"type": "node", "id": 879883517, "lat": 30.4506327, "lon": -97.7901346}, {"type": "node", "id": 879883518, "lat": 30.4505255, "lon": -97.7900908}, {"type": "node", "id": 879883519, "lat": 30.4505855, "lon": -97.7898931}, {"type": "node", "id": 879883520, "lat": 30.4506847, "lon": -97.7899336}, {"type": "node", "id": 1332549526, "lat": 30.4468241, "lon": -97.7886992}, {"type": "node", "id": 1332549580, "lat": 30.4469472, "lon": -97.7884697}, {"type": "node", "id": 1332549672, "lat": 30.4470125, "lon": -97.7888351}, {"type": "node", "id": 1485008848, "lat": 30.4473524, "lon": -97.787084, "tags": {"addr:city": "Austin", "addr:housenumber": "Ste 415", "addr:postcode": "78750", "addr:state": "TX", "addr:street": "13435 Hwy 183", "amenity": "restaurant", "cuisine": "breakfast;lunch;sandwich;pancake;dinner", "name": "Kerbey Lane Cafe", "opening_hours": "24/7", "outdoor_seating": "yes"}}, {"type": "node", "id": 1496572045, "lat": 30.4471724, "lon": -97.791207, "tags": {"addr:housenumber": "13450", "addr:postcode": "78750", "addr:street": "Research Blvd", "amenity": "restaurant", "cuisine": "greek", "name": "Tino's Greek Cafe", "phone": "+1-512-336-5999", "source": "local_knowledge", "website": "tinosgreekcafe.com"}}, {"type": "node", "id": 2622867244, "lat": 30.4473688, "lon": -97.7889237, "tags": {"addr:city": "Austin", "addr:housenumber": "13429", "addr:postcode": "78750", "addr:street": "N HWY 183", "amenity": "restaurant", "cuisine": "mexican", "name": "Cabo Bob's Burritos"}}, {"type": "node", "id": 2785056669, "lat": 30.4467738, "lon": -97.7918378, "tags": {"addr:city": "Austin", "addr:country": "US", "addr:housenumber": "13450", "addr:postcode": "78750", "addr:state": "TX", "addr:street": "Research Boulevard", "addr:unit": "118", "amenity": "restaurant", "contact:facebook": "https://www.facebook.com/xinglongbistro/", "contact:phone": "+1-512-331-8168", "cuisine": "chinese", "delivery": "yes", "email": "xinglongchinesecuisine@gmail.com", "name": "Xing Long Chinese Cuisine", "opening_hours:dinner": "Mo-Th 16:30-21:30; Fr-Sa 14:30-22:00; Su 14:30-21:30", "opening_hours:lunch": "Mo-Fr 11:00-14:30; Sa-Su 12:00-14:30", "takeaway": "yes", "website": "https://www.xinglongcuisine.com/"}}, {"type": "node", "id": 5129341103, "lat": 30.4451874, "lon": -97.786557, "tags": {"addr:city": "Austin", "addr:housenumber": "13301", "addr:postcode": "78750", "addr:state": "TX", "addr:street": "Research Boulevard", "addr:unit": "Bldg E", "amenity": "restaurant", "cuisine": "mexican", "name": "Jardin Corona", "opening_hours": "Mo-Th 11:00-22:00; Fr 11:00-23:00; Sa 08:00-23:00; Su 08:00-22:00", "phone": "512-250-1061", "website": "https://www.jardincoronarestaurant.com/", "wikimedia_commons": "Category:Jardin Corona Austin"}}, {"type": "node", "id": 5372139763, "lat": 30.4471566, "lon": -97.7886209}, {"type": "node", "id": 6347912283, "lat": 30.4480848, "lon": -97.7917734}, {"type": "node", "id": 6347912284, "lat": 30.448136, "lon": -97.7916322}, {"type": "node", "id": 6347912785, "lat": 30.4480469, "lon": -97.7915887}, {"type": "node", "id": 6347912786, "lat": 30.448026, "lon": -97.7918089}, {"type": "node", "id": 6480898254, "lat": 30.446333, "lon": -97.7912925}, {"type": "node", "id": 6480898255, "lat": 30.4462047, "lon": -97.791179}, {"type": "node", "id": 6480898256, "lat": 30.4463064, "lon": -97.7910243}, {"type": "node", "id": 6480898257, "lat": 30.4464347, "lon": -97.7911378}, {"type": "node", "id": 6480898289, "lat": 30.4472851, "lon": -97.7908482, "tags": {"amenity": "restaurant", "brand": "Wingstop", "brand:wikidata": "Q8025339", "brand:wikipedia": "en:Wingstop", "cuisine": "wings", "name": "Wingstop"}}, {"type": "node", "id": 7108302856, "lat": 30.4470531, "lon": -97.7887595}, {"type": "node", "id": 7108302857, "lat": 30.4470741, "lon": -97.7887747}, {"type": "node", "id": 7108302878, "lat": 30.4462799, "lon": -97.7864313, "tags": {"addr:city": "Austin", "addr:housenumber": "13343", "addr:postcode": "78750", "addr:state": "TX", "addr:street": "North US Highway 183", "addr:unit": "240", "amenity": "restaurant", "cuisine": "pizza", "name": "DoubleDave's Pizza", "opening_hours": "Mo-Su 10:30-22:00", "phone": "+1-512-918-3283", "website": "https://www.doubledaves.com/", "wheelchair": "yes"}}, {"type": "node", "id": 7108302880, "lat": 30.4461154, "lon": -97.7862149, "tags": {"addr:city": "Austin", "addr:housenumber": "13343", "addr:postcode": "78750", "addr:state": "TX", "addr:street": "North US Highway 183", "amenity": "cafe", "brand": "Sharetea", "brand:wikidata": "Q64827032", "cuisine": "bubble_tea", "internet_access": "wlan", "internet_access:fee": "no", "name": "Sharetea", "name:en": "Sharetea", "name:zh": "\u6b47\u8173\u4ead", "outdoor_seating": "no", "takeaway": "yes", "wheelchair": "yes"}}, {"type": "node", "id": 7108302881, "lat": 30.4461457, "lon": -97.7862576, "tags": {"addr:city": "Austin", "addr:housenumber": "13343", "addr:postcode": "78750", "addr:state": "TX", "addr:street": "North US Highway 183", "addr:unit": "270", "amenity": "restaurant", "cuisine": "sushi", "name": "Ola Poke", "opening_hours": "Mo-Sa 11:00-21:00; Su 12:00-21:00", "phone": "+1-512-323-0153", "website": "https://www.olapokeaustin.com/"}}, {"type": "node", "id": 7108322908, "lat": 30.4458966, "lon": -97.7877168}, {"type": "node", "id": 7108322909, "lat": 30.4458739, "lon": -97.787689}, {"type": "node", "id": 7108322926, "lat": 30.4458842, "lon": -97.7857806, "tags": {"addr:city": "Austin", "addr:housenumber": "13343", "addr:postcode": "78750", "addr:state": "TX", "addr:street": "North US Highway 183", "addr:unit": "350", "alt_name": "Melting Pot", "amenity": "restaurant", "brand": "The Melting Pot", "brand:wikidata": "Q7750948", "brand:wikipedia": "en:The Melting Pot (restaurant)", "cuisine": "fondue", "fax": "+1-512-401-0004", "name": "The Melting Pot", "opening_hours": "Mo-Th 17:00-22:00; Fr 17:00-23:00; Sa 12:00-23:00; Su 12:00-21:00", "phone": "+1-512-401-2424"}}, {"type": "node", "id": 8355560386, "lat": 30.4480213, "lon": -97.7916367}, {"type": "node", "id": 8355560387, "lat": 30.4480297, "lon": -97.791636}, {"type": "node", "id": 8355560388, "lat": 30.4480252, "lon": -97.7916718}, {"type": "node", "id": 8355560389, "lat": 30.4480118, "lon": -97.791666}, {"type": "node", "id": 8355560390, "lat": 30.4480317, "lon": -97.7918219}, {"type": "node", "id": 8355560391, "lat": 30.4480852, "lon": -97.7918213}, {"type": "node", "id": 8777701715, "lat": 30.4506687, "lon": -97.790016}, {"type": "node", "id": 8777701716, "lat": 30.4506607, "lon": -97.7900127}, {"type": "node", "id": 8780196260, "lat": 30.448023, "lon": -97.7918181}, {"type": "node", "id": 8780196261, "lat": 30.4479865, "lon": -97.7917918}, {"type": "node", "id": 8780196274, "lat": 30.4458141, "lon": -97.7900953}, {"type": "node", "id": 8780196275, "lat": 30.4458049, "lon": -97.7900869}, {"type": "node", "id": 8780196276, "lat": 30.4457819, "lon": -97.7901204}, {"type": "node", "id": 8780196277, "lat": 30.4457908, "lon": -97.7901286}, {"type": "way", "id": 31143502, "nodes": [346369316, 346369317, 346369318, 346369319, 346369316], "tags": {"addr:city": "Austin", "addr:housenumber": "13450", "addr:postcode": "78727", "addr:street": "Research Boulevard", "amenity": "restaurant", "building": "yes", "cuisine": "mexican", "name": "La Tapatia", "phone": "+1 512 219 5008"}}, {"type": "way", "id": 31143515, "nodes": [346369689, 346369691, 8780196277, 8780196276, 8780196275, 8780196274, 346369693, 346369694, 346369689], "tags": {"amenity": "cafe", "brand": "The Coffee Bean & Tea Leaf", "brand:wikidata": "Q1141384", "brand:wikipedia": "en:The Coffee Bean & Tea Leaf", "building": "yes", "cuisine": "coffee_shop", "name": "The Coffee Bean & Tea Leaf", "takeaway": "yes"}}, {"type": "way", "id": 31143816, "nodes": [346375112, 346375113, 7108322908, 7108322909, 346375114, 346375117, 346375118, 346375120, 346375121, 346375122, 346375112], "tags": {"amenity": "restaurant", "brand": "Cheddar's", "brand:wikidata": "Q5089187", "brand:wikipedia": "en:Cheddar's Scratch Kitchen", "building": "yes", "cuisine": "american", "name": "Cheddar's", "official_name": "Cheddar's Scratch Kitchen"}}, {"type": "way", "id": 74447775, "nodes": [879883517, 879883518, 879883519, 879883520, 8777701716, 8777701715, 879883517], "tags": {"addr:city": "Austin", "addr:housenumber": "13507", "addr:postcode": "78729", "addr:state": "TX", "addr:street": "Research Boulevard", "air_conditioning": "yes", "amenity": "restaurant", "building": "yes", "cuisine": "seafood", "delivery": "yes", "email": "joaquinleyva202@yahoo.com", "name": "Pacific Star Restaurant & Oyster Bar", "opening_hours": "Su-Th 11:00-22:00; Fr-Sa 11:00-23:00", "outdoor_seating": "yes", "phone": "+1-512-219-5373", "safety:mask:covid19": "yes", "takeaway": "yes", "website": "https://austin.pacificstaratx.com/", "wheelchair": "yes"}}, {"type": "way", "id": 118481518, "nodes": [5372139763, 1332549580, 1332549526, 1332549672, 7108302856, 7108302857, 5372139763], "tags": {"addr:city": "Austin", "addr:housenumber": "13435", "addr:state": "TX", "addr:street": "Research Boulevard", "amenity": "restaurant", "brand": "Texas Roadhouse", "brand:wikidata": "Q7707945", "brand:wikipedia": "en:Texas Roadhouse", "building": "yes", "cuisine": "steak_house", "name": "Texas Roadhouse"}}, {"type": "way", "id": 677947934, "nodes": [6347912283, 6347912284, 6347912785, 8355560387, 8355560386, 8355560389, 8355560388, 8780196261, 6347912786, 8780196260, 8355560390, 8355560391, 6347912283], "tags": {"addr:city": "Austin", "addr:housenumber": "9617", "addr:postcode": "78750", "addr:state": "TX", "addr:street": "Anderson Mill Rd", "addr:unit": "238", "amenity": "cafe", "brand": "Starbucks", "brand:wikidata": "Q37158", "brand:wikipedia": "en:Starbucks", "building": "yes", "contact:website": "https://www.starbucks.com/store-locator/store/1017572/anderson-mill-183-9617-anderson-mill-rd-238-austin-tx-78750-us", "cuisine": "coffee_shop", "description": "Starbucks coffee", "name": "Starbucks", "official_name": "Starbucks Coffee", "takeaway": "yes"}}, {"type": "way", "id": 690726990, "nodes": [6480898254, 6480898255, 6480898256, 6480898257, 6480898254], "tags": {"addr:city": "Austin", "addr:country": "US", "addr:housenumber": "13450", "addr:postcode": "78750", "addr:state": "TX", "addr:street": "Research Boulevard", "addr:unit": "230", "amenity": "restaurant", "building": "yes", "cuisine": "italian", "name": "Reale's Italian Cafe", "phone": "+1-512-335-5115", "source": "local_knowledge", "website": "realespizza.com"}}]}