{"version": 0.6, "generator": "Overpass API 0.7.61.5 4133829e", "osm3s": {"timestamp_osm_base": "2024-01-28T03:51:45Z", "copyright": "The data included in this document is from www.openstreetmap.org. The data is made available under ODbL."}, "elements": [{"type": "node", "id": 1481848476, "lat": 30.2654151, "lon": -97.748667, "tags": {"addr:housenumber": "419", "addr:street": "West 2nd Street", "amenity": "restaurant"}}, {"type": "node", "id": 3248316799, "lat": 30.2656885, "lon": -97.7484551, "tags": {"addr:housenumber": "452", "addr:street": "West 2nd Street", "amenity": "restaurant", "cuisine": "italian"}}, {"type": "node", "id": 3248363283, "lat": 30.2675522, "lon": -97.7494041, "tags": {"addr:city": "Austin", "addr:housenumber": "360", "addr:postcode": "78701", "addr:state": "TX", "addr:street": "Nueces Street", "addr:unit": "Suite 80", "amenity": "restaurant", "cuisine": "poke", "name": "Pok\u00e9 Bowl"}}, {"type": "node", "id": 3849778276, "lat": 30.265697, "lon": -97.748514, "tags": {"addr:housenumber": "454", "addr:postcode": "78701", "addr:street": "West 2nd Street", "amenity": "restaurant", "cuisine": "sandwich;american", "name": "Local Foods", "opening_hours": "Mo-Th 10:45-20:00; Fr 10:45-20:30; Sa 09:00-20:30; Su 09:00-20:00", "website": "http://www.localfoodstexas.com/"}}, {"type": "node", "id": 4027267068, "lat": 30.2671399, "lon": -97.7500446, "tags": {"addr:city": "Austin", "addr:housenumber": "360", "addr:postcode": "78701", "addr:state": "TX", "addr:street": "Nueces Street", "addr:unit": "10", "air_conditioning": "yes", "amenity": "restaurant", "name": "Polvo's", "outdoor_seating": "yes", "smoking": "no"}}, {"type": "node", "id": 4389511242, "lat": 30.2669927, "lon": -97.7523453, "tags": {"amenity": "restaurant", "name": "True Food Kitchen"}}, {"type": "node", "id": 5351338222, "lat": 30.2659764, "lon": -97.7495445, "tags": {"addr:postcode": "78701", "addr:street": "West 2nd Street", "amenity": "restaurant", "name": "Flower Child"}}, {"type": "node", "id": 5351366521, "lat": 30.2658145, "lon": -97.7489908, "tags": {"addr:postcode": "78701", "addr:street": "West 2nd Street", "amenity": "restaurant", "name": "North Italia"}}, {"type": "node", "id": 6039859212, "lat": 30.2655237, "lon": -97.7490365, "tags": {"amenity": "restaurant", "cuisine": "brasserie", "name": "Le Politique", "restaurant": "brasserie"}}, {"type": "node", "id": 6039859213, "lat": 30.2668996, "lon": -97.7528357, "tags": {"addr:city": "Austin", "addr:housenumber": "800", "addr:postcode": "78701", "addr:state": "TX", "addr:street": "West Cesar Chavez Street", "addr:unit": "PP110", "air_conditioning": "yes", "amenity": "restaurant", "bar": "yes", "cuisine": "latin_american", "name": "Ember Kitchen", "opening_hours": "Mo-Sa 17:00-22:00", "outdoor_seating": "yes", "phone": "+1-512-200-2250", "reservation": "yes", "restaurant": "american", "smoking": "no", "toilets": "yes", "website": "https://www.emberatx.com/", "website:menu": "https://www.emberatx.com/menu-ember", "wheelchair": "yes"}}, {"type": "node", "id": 7024063230, "lat": 30.2667995, "lon": -97.7497783, "tags": {"addr:city": "Austin", "addr:housenumber": "607", "addr:postcode": "78701", "addr:state": "TX", "addr:street": "West 3rd Street", "addr:unit": "115", "air_conditioning": "yes", "amenity": "cafe", "brand": "JuiceLand", "brand:wikidata": "Q123022671", "cuisine": "juice;breakfast", "name": "JuiceLand", "opening_hours": "Mo-Sa 07:00-21:00, Su 08:00-21:00", "website": "https://www.juiceland.com/locations/third-shoal/"}}, {"type": "node", "id": 7024063231, "lat": 30.2668307, "lon": -97.7498946, "tags": {"addr:city": "Austin", "addr:housenumber": "607", "addr:postcode": "78701", "addr:state": "TX", "addr:street": "West 3rd Street", "addr:unit": "110", "amenity": "cafe", "cuisine": "coffee_shop", "name": "Intelligentsia"}}, {"type": "node", "id": 8090124769, "lat": 30.2652973, "lon": -97.7482013, "tags": {"amenity": "cafe", "cuisine": "coffee_shop;ice_cream", "name": "Yummi Joy", "outdoor_seating": "yes"}}, {"type": "node", "id": 8178233808, "lat": 30.2657244, "lon": -97.7496942, "tags": {"addr:city": "Austin", "addr:housenumber": "110", "addr:postcode": "78701", "addr:state": "TX", "addr:street": "San Antonio Street", "addr:unit": "120", "air_conditioning": "yes", "amenity": "restaurant", "bar": "yes", "cuisine": "tacos", "level": "0", "name": "Torchy's Tacos", "opening_hours": "Su-We 09:00-21:00; Th-Sa 09:00-23:00", "outdoor_seating": "yes", "phone": "+1-512-792-5909", "smoking": "no", "takeaway": "yes"}}, {"type": "node", "id": 8178233810, "lat": 30.2649037, "lon": -97.7492614, "tags": {"addr:city": "Austin", "addr:housenumber": "110", "addr:postcode": "78701", "addr:state": "TX", "addr:street": "San Antonio Street", "addr:unit": "170", "air_conditioning": "yes", "amenity": "restaurant", "bar": "yes", "cuisine": "mexican", "diet:gluten_free": "yes", "name": "ATX Cocina", "phone": "+1-512-263-2322", "website": "https://www.atxcocina.com/"}}, {"type": "node", "id": 8220261374, "lat": 30.2676667, "lon": -97.7523323, "tags": {"addr:city": "Austin", "addr:housenumber": "211", "addr:postcode": "78701", "addr:state": "TX", "addr:street": "Walter Seaholm Drive", "addr:unit": "LR115", "amenity": "restaurant", "cuisine": "poke", "name": "Malibu Poke"}}, {"type": "node", "id": 8581202370, "lat": 30.266151, "lon": -97.750323, "tags": {"addr:city": "Austin", "addr:housenumber": "600", "addr:postcode": "78701", "addr:state": "TX", "addr:street": "West 2nd Street", "air_conditioning": "yes", "amenity": "restaurant", "bar": "yes", "cuisine": "mediterranean", "level": "0", "name": "The Peacock", "outdoor_seating": "yes", "smoking": "no", "website": "https://www.properhotel.com/austin/restaurants-bars/the-peacock/", "wheelchair": "yes"}}, {"type": "node", "id": 8931050056, "lat": 30.2675657, "lon": -97.7521411, "tags": {"addr:city": "Austin", "addr:housenumber": "222", "addr:postcode": "78701", "addr:state": "TX", "addr:street": "West Avenue", "addr:unit": "120", "amenity": "cafe", "name": "Merit Coffee"}}, {"type": "node", "id": 8955666710, "lat": 30.2687991, "lon": -97.748568, "tags": {"addr:city": "Austin", "addr:housenumber": "500", "addr:postcode": "78701", "addr:state": "TX", "addr:street": "West 5th Street", "air_conditioning": "yes", "amenity": "restaurant", "cuisine": "southern", "name": "Fixe Southern House", "smoking": "no"}}, {"type": "node", "id": 8958597082, "lat": 30.2656556, "lon": -97.7483406, "tags": {"air_conditioning": "yes", "amenity": "cinema", "level": "1", "name": "Violet Crown Cinema", "wheelchair": "yes", "wikidata": "Q43009939"}}, {"type": "node", "id": 8991731246, "lat": 30.2668723, "lon": -97.7500637, "tags": {"addr:city": "Austin", "addr:housenumber": "607", "addr:postcode": "78701", "addr:state": "TX", "addr:street": "West 3rd Street", "addr:unit": "105", "air_conditioning": "yes", "amenity": "restaurant", "cuisine": "fine_dining", "name": "Hestia", "website": "https://hestiaaustin.com/"}}, {"type": "node", "id": 9421954118, "lat": 30.2663283, "lon": -97.750336}, {"type": "node", "id": 9421954119, "lat": 30.2662933, "lon": -97.7503486}, {"type": "node", "id": 9421954120, "lat": 30.266254, "lon": -97.7502029}, {"type": "node", "id": 9421954121, "lat": 30.266289, "lon": -97.7501903}, {"type": "node", "id": 9655018609, "lat": 30.2658323, "lon": -97.7500534, "tags": {"addr:city": "Austin", "addr:housenumber": "601", "addr:postcode": "78701", "addr:state": "TX", "addr:street": "West 2nd Street", "air_conditioning": "yes", "amenity": "restaurant", "bar": "yes", "branch": "Austin", "capacity": "159", "check_date": "2023-09-28", "cuisine": "japanese", "diet:meat": "yes", "diet:pescetarian": "yes", "diet:vegetarian": "yes", "level": "0", "name": "Uchib\u0101", "name:ja": "\u5bb6\u30d0\u30fc", "opening_date": "2023-10-06", "opening_hours": "Su-Th 16:00-22:00; Fr-Sa 16:00-23:00", "outdoor_seating": "yes", "phone": "+1-512-916-4808", "reservation": "yes", "smoking": "no", "takeaway": "yes", "toilets": "yes", "website": "https://uchiba.uchirestaurants.com/", "wheelchair": "yes"}}, {"type": "node", "id": 11492466913, "lat": 30.2672874, "lon": -97.7545299, "tags": {"addr:city": "Austin", "addr:housenumber": "111", "addr:postcode": "78703", "addr:state": "TX", "addr:street": "Sandra Muraida Way", "addr:unit": "101", "amenity": "cafe", "cuisine": "coffee_shop", "name": "Ma\u0148ana"}}, {"type": "way", "id": 1021571018, "nodes": [9421954118, 9421954119, 9421954120, 9421954121, 9421954118], "tags": {"addr:city": "Austin", "addr:housenumber": "202", "addr:postcode": "78701", "addr:state": "TX", "addr:street": "West 2nd Street", "amenity": "restaurant", "bar": "yes", "cuisine": "mexican", "email": "info@lapiscinaaustin.com", "level": "4", "name": "La Piscina Ceviches & Fajitas", "opening_hours": "Mo-Su 11:00-22:00", "phone": "+15126281415", "website": "https://www.properhotel.com/austin/restaurants-bars/la-piscina/"}}]}