{"version": 0.6, "generator": "Overpass API 0.7.61.5 4133829e", "osm3s": {"timestamp_osm_base": "2024-01-28T03:51:45Z", "copyright": "The data included in this document is from www.openstreetmap.org. The data is made available under ODbL."}, "elements": [{"type": "node", "id": 530927653, "lat": 30.307639, "lon": -97.7419161, "tags": {"amenity": "restaurant", "name": "EZ's Brick Oven & Grill"}}, {"type": "node", "id": 530927844, "lat": 30.3073735, "lon": -97.7421749, "tags": {"amenity": "restaurant", "name": "Banzai Sushi & Grill"}}, {"type": "node", "id": 530928514, "lat": 30.3059582, "lon": -97.7442691, "tags": {"addr:city": "Austin", "addr:housenumber": "1106", "addr:state": "TX", "addr:street": "West 38th Street", "amenity": "restaurant", "cuisine": "brunch", "name": "Oakmont Food Company", "opening_hours": "Su 8:00-16:00;Mo 10:00-15:00;We-Th 10:00-21:00;Fr-Sa 8:00-21:00", "phone": "+1-512-433-6011", "website": "https://oakmontfood.com/", "wheelchair": "yes"}}, {"type": "node", "id": 530929398, "lat": 30.3065679, "lon": -97.7451642, "tags": {"amenity": "cafe", "name": "Teo's Gelato and Espresso"}}, {"type": "node", "id": 2099133041, "lat": 30.306775, "lon": -97.74429, "tags": {"amenity": "restaurant", "cuisine": "mexican", "name": "Santa Rita"}}, {"type": "node", "id": 3181780245, "lat": 30.3104716, "lon": -97.7401083, "tags": {"addr:city": "Austin", "addr:housenumber": "4200", "addr:state": "TX", "addr:street": "North Lamar Boulevard", "air_conditioning": "yes", "amenity": "restaurant", "cuisine": "mexican", "diet:pescetarian": "yes", "diet:vegetarian": "yes", "name": "Tacodeli", "outdoor_seating": "yes", "takeaway": "yes"}}, {"type": "node", "id": 3181780246, "lat": 30.3106073, "lon": -97.7400068, "tags": {"addr:city": "Austin", "addr:housenumber": "4200", "addr:postcode": "78756", "addr:state": "TX", "addr:street": "North Lamar Boulevard", "addr:unit": "STE 120", "amenity": "cafe", "cuisine": "coffee_shop", "internet_access": "yes", "name": "Houndstooth", "opening_hours": "Mo-Su 06:30-17:00", "outdoor_seating": "yes", "phone": "+1-512-531-9417", "website": "https://www.houndstoothcoffee.com/"}}, {"type": "node", "id": 3181780247, "lat": 30.3107699, "lon": -97.7398856, "tags": {"addr:housenumber": "4200", "addr:street": "North Lamar Boulevard", "amenity": "restaurant", "cuisine": "japanese", "name": "Uchiko"}}, {"type": "node", "id": 5465041535, "lat": 30.3056313, "lon": -97.7434574, "tags": {"addr:city": "Austin", "addr:housenumber": "3800", "addr:postcode": "78756", "addr:state": "TX", "addr:street": "North Lamar Boulevard", "addr:unit": "120", "amenity": "restaurant", "cuisine": "brunch;breakfast", "delivery": "no", "name": "Snooze An A.M. Earery", "opening_hours": "Mo-Su 06:30-14:30", "outdoor_seating": "yes", "takeaway": "yes"}}, {"type": "node", "id": 5961537972, "lat": 30.3074215, "lon": -97.742008, "tags": {"addr:city": "Austin", "addr:housenumber": "3914", "addr:postcode": "78756", "addr:state": "TX", "addr:street": "North Lamar Boulevard", "amenity": "restaurant", "cuisine": "barbecue", "name": "Rudy's Country Store & BBQ", "phone": "+1-512-838-3337"}}, {"type": "node", "id": 7093936046, "lat": 30.3111425, "lon": -97.7427252, "tags": {"addr:housenumber": "4112", "addr:street": "Medical Parkway", "amenity": "restaurant", "description": "Food trailer at the Draught House", "name": "Little House"}}]}