{"version": 0.6, "generator": "Overpass API 0.7.61.5 4133829e", "osm3s": {"timestamp_osm_base": "2023-09-27T02:02:36Z", "copyright": "The data included in this document is from www.openstreetmap.org. The data is made available under ODbL."}, "elements": [{"type": "node", "id": 538135772, "lat": 30.3909012, "lon": -97.7475971, "tags": {"addr:city": "Austin", "addr:country": "US", "addr:housenumber": "10000", "addr:postcode": "78759", "addr:street": "Research Boulevard", "addr:unit": "4602", "alt_name": "Cheesecake Factory", "amenity": "restaurant", "brand": "The Cheesecake Factory", "brand:wikidata": "Q1045842", "brand:wikipedia": "en:The Cheesecake Factory", "cuisine": "american", "name": "The Cheesecake Factory", "phone": "+1  512-241-0777", "website": "https://locations.thecheesecakefactory.com/tx/austin-48.html"}}, {"type": "node", "id": 599493141, "lat": 30.3957428, "lon": -97.7472319, "tags": {"amenity": "restaurant", "cuisine": "french", "name": "la Madeleine", "toilets:wheelchair": "yes", "wheelchair": "yes"}}, {"type": "node", "id": 859683267, "lat": 30.3943774, "lon": -97.7475644}, {"type": "node", "id": 859683268, "lat": 30.3945506, "lon": -97.7477731}, {"type": "node", "id": 859683269, "lat": 30.3947087, "lon": -97.7475969}, {"type": "node", "id": 859683270, "lat": 30.3945355, "lon": -97.7473881}, {"type": "node", "id": 860320196, "lat": 30.397777, "lon": -97.7471916}, {"type": "node", "id": 860320197, "lat": 30.3975306, "lon": -97.7472118}, {"type": "node", "id": 860320199, "lat": 30.3975157, "lon": -97.746966}, {"type": "node", "id": 860320201, "lat": 30.3977249, "lon": -97.7469489}, {"type": "node", "id": 860320203, "lat": 30.3977477, "lon": -97.7469205}, {"type": "node", "id": 860320205, "lat": 30.3977899, "lon": -97.746966}, {"type": "node", "id": 860320207, "lat": 30.3977651, "lon": -97.7469969}, {"type": "node", "id": 864918406, "lat": 30.3955446, "lon": -97.7454067}, {"type": "node", "id": 864918411, "lat": 30.3953912, "lon": -97.7455148}, {"type": "node", "id": 864918423, "lat": 30.395362, "lon": -97.74546}, {"type": "node", "id": 864918427, "lat": 30.3953176, "lon": -97.7454918}, {"type": "node", "id": 864918430, "lat": 30.3952615, "lon": -97.7453864}, {"type": "node", "id": 864918433, "lat": 30.3953067, "lon": -97.745354}, {"type": "node", "id": 864918439, "lat": 30.3952687, "lon": -97.7452827}, {"type": "node", "id": 864918443, "lat": 30.3954037, "lon": -97.7451861}, {"type": "node", "id": 864918446, "lat": 30.3954471, "lon": -97.7452675}, {"type": "node", "id": 864918457, "lat": 30.395464, "lon": -97.7452553}, {"type": "node", "id": 1231748014, "lat": 30.3954096, "lon": -97.7455493}, {"type": "node", "id": 1231748073, "lat": 30.3954868, "lon": -97.7454481}, {"type": "node", "id": 1231748085, "lat": 30.3947997, "lon": -97.7444977, "tags": {"amenity": "restaurant", "brand": "Jason's Deli", "brand:wikidata": "Q16997641", "brand:wikipedia": "en:Jason's Deli", "cuisine": "sandwich", "name": "Jason's Deli"}}, {"type": "node", "id": 1231748152, "lat": 30.3955045, "lon": -97.7454814}, {"type": "node", "id": 1249186321, "lat": 30.3950774, "lon": -97.7484716, "tags": {"amenity": "restaurant", "name": "Honest Mary's"}}, {"type": "way", "id": 72384276, "nodes": [859683267, 859683268, 859683269, 859683270, 859683267], "tags": {"addr:housenumber": "9828", "amenity": "restaurant", "brand": "Romano's Macaroni Grill", "brand:wikidata": "Q7362714", "brand:wikipedia": "en:Romano's Macaroni Grill", "building": "yes", "cuisine": "italian", "name": "Romano's Macaroni Grill"}}, {"type": "way", "id": 72463808, "nodes": [860320201, 860320203, 860320205, 860320207, 860320196, 860320197, 860320199, 860320201], "tags": {"addr:housenumber": "10614", "addr:postcode": "78759", "addr:street": "Research Boulevard", "amenity": "restaurant", "brand": "Saltgrass Steak House", "brand:wikidata": "Q7406113", "brand:wikipedia": "en:Saltgrass Steak House", "building": "yes", "cuisine": "steak_house", "name": "Saltgrass Steak House"}}, {"type": "way", "id": 72878811, "nodes": [864918406, 1231748073, 1231748152, 1231748014, 864918411, 864918423, 864918427, 864918430, 864918433, 864918439, 864918443, 864918446, 864918457, 864918406], "tags": {"addr:city": "Austin", "addr:housenumber": "10225", "addr:postcode": "78759", "addr:state": "TX", "addr:street": "Research Boulevard", "amenity": "restaurant", "building": "yes", "cuisine": "seafood", "name": "Truluck's Seafood Steak & Crab"}}]}