{"version": 0.6, "generator": "Overpass API 0.7.61.5 4133829e", "osm3s": {"timestamp_osm_base": "2023-11-07T05:17:14Z", "copyright": "The data included in this document is from www.openstreetmap.org. The data is made available under ODbL."}, "elements": [{"type": "node", "id": 3181780245, "lat": 30.3104716, "lon": -97.7401083, "tags": {"addr:city": "Austin", "addr:housenumber": "4200", "addr:state": "TX", "addr:street": "North Lamar Boulevard", "air_conditioning": "yes", "amenity": "restaurant", "cuisine": "mexican", "diet:pescetarian": "yes", "diet:vegetarian": "yes", "name": "Tacodeli", "outdoor_seating": "yes", "takeaway": "yes"}}, {"type": "node", "id": 3181780246, "lat": 30.3106073, "lon": -97.7400068, "tags": {"addr:city": "Austin", "addr:housenumber": "4200", "addr:postcode": "78756", "addr:state": "TX", "addr:street": "North Lamar Boulevard", "addr:unit": "STE 120", "amenity": "cafe", "cuisine": "coffee_shop", "internet_access": "yes", "name": "Houndstooth", "opening_hours": "Mo-Su 06:30-17:00", "outdoor_seating": "yes", "phone": "+1-512-531-9417", "website": "https://www.houndstoothcoffee.com/"}}, {"type": "node", "id": 3181780247, "lat": 30.3107699, "lon": -97.7398856, "tags": {"addr:housenumber": "4200", "addr:street": "North Lamar Boulevard", "amenity": "restaurant", "cuisine": "japanese", "name": "Uchiko"}}, {"type": "node", "id": 7093936046, "lat": 30.3111425, "lon": -97.7427252, "tags": {"addr:housenumber": "4112", "addr:street": "Medical Parkway", "amenity": "restaurant", "description": "Food trailer at the Draught House", "name": "Little House"}}]}