{"version": 0.6, "generator": "Overpass API 0.7.61.5 4133829e", "osm3s": {"timestamp_osm_base": "2023-11-07T05:16:09Z", "copyright": "The data included in this document is from www.openstreetmap.org. The data is made available under ODbL."}, "elements": [{"type": "node", "id": 338450996, "lat": 30.2685706, "lon": -97.7422257, "tags": {"addr:city": "Austin", "addr:housenumber": "617", "addr:postcode": "78701", "addr:state": "TX", "addr:street": "Congress Avenue", "amenity": "theatre", "internet_access": "yes", "name": "The Hideout Theater"}}, {"type": "node", "id": 338450997, "lat": 30.2682668, "lon": -97.7429695, "tags": {"amenity": "cafe", "brand": "Starbucks", "brand:wikidata": "Q37158", "brand:wikipedia": "en:Starbucks", "cuisine": "coffee_shop", "name": "Starbucks", "official_name": "Starbucks Coffee", "opening_hours": "Mo-Fr 05:30-21:00, Sa,Su 06:30-19:00", "takeaway": "yes"}}, {"type": "node", "id": 1148144462, "lat": 30.2686456, "lon": -97.7423865}, {"type": "node", "id": 1481633389, "lat": 30.2686611, "lon": -97.7454947, "tags": {"amenity": "restaurant", "name": "Belmont"}}, {"type": "node", "id": 1483931073, "lat": 30.2694661, "lon": -97.7435164, "tags": {"amenity": "restaurant", "name": "Perry's Steakhouse"}}, {"type": "node", "id": 1483931076, "lat": 30.2701619, "lon": -97.7432887, "tags": {"amenity": "cafe", "name": "The Amsterdam"}}, {"type": "node", "id": 1483931096, "lat": 30.271294, "lon": -97.7418546, "tags": {"amenity": "restaurant", "cuisine": "italian", "name": "Quattro Gatti Ristorante", "old_name": "Marakesh Bar & Grill", "opening_hours": "Mo-Th 11:00-22:00;Fr 11:00-23:00;Sa 13:00-23:00", "phone": "+1-512-476-3131", "website": "http://www.quattrogattiaustin.com/"}}, {"type": "node", "id": 1483931115, "lat": 30.2690633, "lon": -97.7421993, "tags": {"addr:housenumber": "701", "addr:postcode": "78701", "addr:street": "Crongress Avenue", "amenity": "restaurant", "cuisine": "steak_house", "name": "Roaring Fork", "wheelchair": "yes"}}, {"type": "node", "id": 3353538589, "lat": 30.2692143, "lon": -97.7416617}, {"type": "node", "id": 3353538591, "lat": 30.2693473, "lon": -97.7421384}, {"type": "node", "id": 3353538592, "lat": 30.2694109, "lon": -97.7415882}, {"type": "node", "id": 3353538793, "lat": 30.2695269, "lon": -97.7415448}, {"type": "node", "id": 3353538794, "lat": 30.2695439, "lon": -97.7420648}, {"type": "node", "id": 3353538796, "lat": 30.2696598, "lon": -97.7420215}, {"type": "node", "id": 3849779903, "lat": 30.270247, "lon": -97.742287, "tags": {"addr:housenumber": "802", "addr:postcode": "78701", "addr:street": "Congress Avenue", "amenity": "cafe", "name": "Caffe Medici"}}, {"type": "node", "id": 4948072436, "lat": 30.2682677, "lon": -97.7440327, "tags": {"addr:city": "Austin", "addr:housenumber": "123", "addr:postcode": "78701", "addr:state": "TX", "addr:street": "West 6th Street", "air_conditioning": "yes", "amenity": "restaurant", "cuisine": "western", "name": "Lonesome Dove Bistro", "start_date": "2022-03-01", "website": "https://lonesomedoveaustin.com/"}}, {"type": "node", "id": 4948072438, "lat": 30.2684788, "lon": -97.7435626, "tags": {"amenity": "restaurant", "name": "Athenian Bar & Grill"}}, {"type": "node", "id": 5771939719, "lat": 30.2703884, "lon": -97.7450556, "tags": {"amenity": "restaurant", "name": "Luby's Cafeteria", "takeaway": "yes"}}, {"type": "node", "id": 10245293658, "lat": 30.2697418, "lon": -97.7419028, "tags": {"addr:city": "Austin", "addr:housenumber": "721", "addr:postcode": "78701", "addr:state": "TX", "addr:street": "Congress Avenue", "air_conditioning": "yes", "amenity": "restaurant", "cuisine": "texan", "level": "0", "name": "Luminaire", "opening_date": "2023-02-01", "opening_hours": "Mo-Su 06:00-23:00", "outdoor_seating": "yes", "toilets": "yes", "website": "https://www.hyatt.com/hyatt-centric/ausct-hyatt-centric-congress-avenue-austin/dining", "wheelchair": "yes"}}, {"type": "node", "id": 10281193544, "lat": 30.2687274, "lon": -97.7423317, "tags": {"addr:city": "Austin", "addr:housenumber": "621", "addr:postcode": "78701", "addr:state": "TX", "addr:street": "Congress Avenue", "addr:unit": "101", "air_conditioning": "yes", "amenity": "restaurant", "bar": "yes", "cuisine": "american", "level": "0", "name": "Caroline", "opening_hours": "Su-Th 07:00-22:00; Fr-Sa 07:00-23:00", "outdoor_seating": "yes", "reservation": "yes", "takeaway": "yes", "website": "https://www.carolinerestaurant.com/caroline", "wheelchair": "yes"}}, {"type": "node", "id": 10281193549, "lat": 30.2687874, "lon": -97.7421935, "tags": {"addr:city": "Austin", "addr:housenumber": "109", "addr:postcode": "78701", "addr:state": "TX", "addr:street": "East 7th Street", "amenity": "cafe", "name": "The Coffehouse at Caroline", "opening_hours": "Mo-Su 06:00-19:00", "website": "https://www.carolinerestaurant.com/the-coffeehouse-at-caroline"}}, {"type": "node", "id": 11242814776, "lat": 30.2686227, "lon": -97.7422994}, {"type": "node", "id": 11242814791, "lat": 30.2685903, "lon": -97.7424083}, {"type": "node", "id": 11242814792, "lat": 30.2684879, "lon": -97.7420367}, {"type": "node", "id": 11242814794, "lat": 30.2684642, "lon": -97.7419466}, {"type": "node", "id": 11242814795, "lat": 30.2685219, "lon": -97.7419262}, {"type": "way", "id": 328526454, "nodes": [3353538794, 3353538592, 3353538589, 3353538591, 3353538794], "tags": {"addr:city": "Austin", "addr:housenumber": "713", "addr:postcode": "78701", "addr:state": "TX", "addr:street": "Congress Avenue", "amenity": "theatre", "architect": "John Eberson", "building": "yes", "building:levels": "5", "height": "19.2024", "heritage": "yes", "historic": "building", "image": "http://commons.wikimedia.org/wiki/File:Paramount_austin_2012.jpg", "name": "Paramount Theatre", "source:geometry": "Bing", "start_date": "1915-10-11", "website": "https://www.austintheatre.org/", "wikidata": "Q7756086", "wikipedia": "en:Paramount Theatre (Austin, Texas)"}}, {"type": "way", "id": 328526455, "nodes": [3353538796, 3353538793, 3353538592, 3353538794, 3353538796], "tags": {"addr:city": "Austin", "addr:housenumber": "719", "addr:postcode": "78701", "addr:state": "TX", "addr:street": "Congress Avenue", "amenity": "cinema", "building": "yes", "name": "State Theatre", "source:geometry": "Bing", "website": "https://www.austintheatre.org/", "wikidata": "Q42298482"}}, {"type": "way", "id": 1213502018, "nodes": [1148144462, 11242814791, 11242814792, 11242814794, 11242814795, 11242814776, 1148144462], "tags": {"addr:city": "Austin", "addr:housenumber": "617", "addr:postcode": "78701", "addr:state": "TX", "addr:street": "Congress Avenue", "amenity": "cafe", "building": "yes", "cuisine": "coffee_shop", "name": "The Hideout Coffee House"}}]}