{"version": 0.6, "generator": "Overpass API 0.7.61.5 4133829e", "osm3s": {"timestamp_osm_base": "2024-01-28T03:51:45Z", "copyright": "The data included in this document is from www.openstreetmap.org. The data is made available under ODbL."}, "elements": [{"type": "node", "id": 300760615, "lat": 30.2806142, "lon": -97.7391241}, {"type": "node", "id": 300760616, "lat": 30.2807383, "lon": -97.7390807}, {"type": "node", "id": 300760617, "lat": 30.2806394, "lon": -97.7387195}, {"type": "node", "id": 300760618, "lat": 30.2804239, "lon": -97.7388051}, {"type": "node", "id": 2675028497, "lat": 30.278064, "lon": -97.744405, "tags": {"addr:city": "Austin", "addr:housenumber": "501", "addr:street": "West 15th Street", "addr:unit": "D", "amenity": "cafe", "brand": "Starbucks", "brand:wikidata": "Q37158", "contact:website": "https://www.starbucks.com/store-locator/store/14916/15th-san-antonio-501-west-15th-street-austin-tx-787011516-us", "cuisine": "coffee_shop", "drive_through": "no", "name": "Starbucks", "official_name": "Starbucks Coffee", "takeaway": "yes"}}, {"type": "node", "id": 2727205684, "lat": 30.2790333, "lon": -97.7423871, "tags": {"addr:city": "Austin", "addr:housenumber": "1601", "addr:postcode": "78701", "addr:street": "Guadalupe Street", "amenity": "restaurant", "cuisine": "indian", "name": "Clay Pit"}}, {"type": "node", "id": 2727206432, "lat": 30.2797199, "lon": -97.7419273, "tags": {"addr:city": "Austin", "addr:housenumber": "314", "addr:postcode": "78701", "addr:street": "West 17th Street", "amenity": "cafe", "name": "Arturo's", "opening_hours": "Tu-Fr 08:00-14:00; Sa,Su 10:00-14:30"}}, {"type": "node", "id": 3308820076, "lat": 30.2770505, "lon": -97.7420083}, {"type": "node", "id": 3308820077, "lat": 30.2769637, "lon": -97.7417266}, {"type": "node", "id": 3308820078, "lat": 30.2766313, "lon": -97.7418527}, {"type": "node", "id": 3308820079, "lat": 30.2767158, "lon": -97.7421451}, {"type": "node", "id": 3842175206, "lat": 30.2823877, "lon": -97.7422419}, {"type": "node", "id": 3842175210, "lat": 30.282405, "lon": -97.7424767}, {"type": "node", "id": 3842175224, "lat": 30.2824466, "lon": -97.7422378}, {"type": "node", "id": 7113323607, "lat": 30.2805201, "lon": -97.7391546}, {"type": "node", "id": 9414759957, "lat": 30.2805786, "lon": -97.7387424}, {"type": "node", "id": 9414759958, "lat": 30.2805807, "lon": -97.7387509}, {"type": "node", "id": 9414760009, "lat": 30.2805886, "lon": -97.7387386}, {"type": "node", "id": 11198016149, "lat": 30.2824609, "lon": -97.7424722}, {"type": "node", "id": 11220883451, "lat": 30.2821105, "lon": -97.7427998, "tags": {"addr:city": "Austin", "addr:housenumber": "1901", "addr:postcode": "78705", "addr:state": "TX", "addr:street": "San Antonio Street", "amenity": "restaurant", "cuisine": "burger", "name": "Burger Bar", "opening_hours": "Su-Th 11:00-22:00; Fr,Sa 11:00-01:00", "website": "https://www.burgerbarcampus.com"}}, {"type": "way", "id": 324138332, "nodes": [3308820076, 3308820077, 3308820078, 3308820079, 3308820076], "tags": {"amenity": "restaurant", "building": "yes", "name": "Texas Chili Parlor", "opening_hours": "Mo-Su 11:00-02:00"}}, {"type": "way", "id": 380922395, "nodes": [11198016149, 3842175224, 3842175206, 3842175210, 11198016149], "tags": {"addr:city": "Austin", "addr:housenumber": "1906", "addr:postcode": "78705", "addr:state": "TX", "addr:street": "Guadalupe Street", "amenity": "cafe", "building": "yes", "cuisine": "bubble_tea", "height": "10.0", "import": "yes", "name": "Tapioca House", "source": "City of Austin"}}, {"type": "way", "id": 1020770315, "nodes": [300760616, 300760615, 7113323607, 300760618, 9414759958, 9414759957, 9414760009, 300760617, 300760616], "tags": {"addr:city": "Austin", "addr:housenumber": "1800", "addr:postcode": "78701", "addr:state": "TX", "addr:street": "Congress Avenue", "amenity": "cinema", "building": "no", "description": "Cinema located inside Bob Bullock Texas State History Museum", "name": "Bob Bullock IMAX", "wikidata": "Q81229863"}}]}