{"version": 0.6, "generator": "Overpass API 0.7.61.5 4133829e", "osm3s": {"timestamp_osm_base": "2024-01-28T03:51:45Z", "copyright": "The data included in this document is from www.openstreetmap.org. The data is made available under ODbL."}, "elements": [{"type": "node", "id": 1488693500, "lat": 30.2829388, "lon": -97.7449006, "tags": {"addr:city": "Austin", "addr:housename": "food trailer in parking lot", "addr:housenumber": "1901", "addr:postcode": "78705", "addr:state": "TX", "addr:street": "Rio Grande", "amenity": "cafe", "diet:vegetarian": "only", "import": "yes", "name": "Conscious Cravings", "opening_hours": "Mo-Sa 11:00-20:00", "phone": "+1-512-782-0546", "source": "City of Austin", "website": "https://www.consciouscravingsaustin.com/"}}, {"type": "node", "id": 2161699449, "lat": 30.2860744, "lon": -97.7411185, "tags": {"amenity": "cafe", "brand": "Starbucks", "brand:wikidata": "Q37158", "cuisine": "coffee_shop", "name": "Starbucks", "official_name": "Starbucks Coffee", "takeaway": "yes"}}, {"type": "node", "id": 2785168695, "lat": 30.2866355, "lon": -97.7449482, "tags": {"addr:city": "Austin", "addr:housenumber": "2222", "addr:postcode": "78705", "addr:state": "TX", "addr:street": "Rio Grande Street", "addr:unit": "100", "amenity": "restaurant", "cuisine": "sushi", "name": "Raku Sushi & Asian Bistro", "website": "https://www.rakusushiaustin.com/"}}, {"type": "node", "id": 3702250390, "lat": 30.2884665, "lon": -97.7416844}, {"type": "node", "id": 3702250393, "lat": 30.2884641, "lon": -97.7416516}, {"type": "node", "id": 3702250394, "lat": 30.2884789, "lon": -97.741873}, {"type": "node", "id": 3702250398, "lat": 30.2885521, "lon": -97.7418665}, {"type": "node", "id": 3702250399, "lat": 30.2885561, "lon": -97.741927}, {"type": "node", "id": 3702250401, "lat": 30.2886043, "lon": -97.7416391}, {"type": "node", "id": 3702250402, "lat": 30.2886057, "lon": -97.7418521}, {"type": "node", "id": 3702250403, "lat": 30.2886103, "lon": -97.7419222}, {"type": "node", "id": 3702250405, "lat": 30.2886184, "lon": -97.741851}, {"type": "node", "id": 3842113617, "lat": 30.2863059, "lon": -97.7450193, "tags": {"addr:city": "Austin", "addr:housenumber": "2222", "addr:postcode": "78705", "addr:state": "TX", "addr:street": "Rio Grande St", "addr:unit": "D116", "amenity": "restaurant", "cuisine": "american;wings", "name": "Plucker's Wing Factory"}}, {"type": "node", "id": 3842174530, "lat": 30.2866, "lon": -97.741932, "tags": {"addr:city": "Austin", "addr:housenumber": "2300", "addr:postcode": "78705", "addr:state": "TX", "addr:street": "Guadalupe Street", "amenity": "restaurant", "cuisine": "pizza", "import": "yes", "name": "Dollar Slice Club", "opening_hours": "Mo-We 11:00-24:00, Th-Sa 11:00-03:00, Su 12:00-24:00", "source": "City of Austin"}}, {"type": "node", "id": 3842175206, "lat": 30.2823877, "lon": -97.7422419}, {"type": "node", "id": 3842175210, "lat": 30.282405, "lon": -97.7424767}, {"type": "node", "id": 3842175224, "lat": 30.2824466, "lon": -97.7422378}, {"type": "node", "id": 3842175226, "lat": 30.282602, "lon": -97.7424602}, {"type": "node", "id": 3842175227, "lat": 30.2826722, "lon": -97.7424}, {"type": "node", "id": 3842175240, "lat": 30.282663, "lon": -97.7422627}, {"type": "node", "id": 3842175262, "lat": 30.2827736, "lon": -97.7422194}, {"type": "node", "id": 3842175271, "lat": 30.2827874, "lon": -97.7424787}, {"type": "node", "id": 3842175273, "lat": 30.2827894, "lon": -97.7422119}, {"type": "node", "id": 3842175274, "lat": 30.2827898, "lon": -97.7422183}, {"type": "node", "id": 3842175287, "lat": 30.2828598, "lon": -97.7424735}, {"type": "node", "id": 3842175313, "lat": 30.2828457, "lon": -97.7422079}, {"type": "node", "id": 4704290290, "lat": 30.2826432, "lon": -97.7444056, "tags": {"amenity": "restaurant", "cuisine": "american", "name": "Kesos Taco House", "opening_hours": "Mo-Fr 07:00-22:00; Sa 08:00-22:00; Su 08:00-21:00", "website": "http://kesostacohouse.com"}}, {"type": "node", "id": 5538321951, "lat": 30.2885673, "lon": -97.7420585, "tags": {"addr:city": "Austin", "addr:housenumber": "2421", "addr:postcode": "78705", "addr:state": "TX", "addr:street": "San Antonio Street", "amenity": "cafe", "cuisine": "coffee_shop", "description": "Local coffee shop with gourmet bakeries.", "internet_access": "wlan", "name": "Lucky Lab Coffee", "outdoor_seating": "yes", "website": "https://www.luckylabcoffee.com/"}}, {"type": "node", "id": 5571027694, "lat": 30.2835675, "lon": -97.7416851, "tags": {"amenity": "cafe", "brand": "Starbucks", "brand:wikidata": "Q37158", "contact:website": "https://www.starbucks.com/store-locator/store/1020414/target-austin-ut-campus-3250-2021-guadalupe-st-austin-tx-78705-us", "cuisine": "coffee_shop", "name": "Starbucks", "official_name": "Starbucks Coffee", "takeaway": "yes"}}, {"type": "node", "id": 5571027695, "lat": 30.2854421, "lon": -97.7420095, "tags": {"amenity": "cafe", "cuisine": "coffee_shop", "name": "Caf\u00e9 Medici", "opening_hours": "Mo-Su 07:00-19:00"}}, {"type": "node", "id": 6264985893, "lat": 30.2892778, "lon": -97.7393939, "tags": {"addr:city": "Austin", "addr:housenumber": "2503", "addr:postcode": "78712", "addr:state": "TX", "addr:street": "Whitis Avenue", "amenity": "cafe", "cuisine": "sandwich", "name": "Littlefield Patio Cafe", "outdoor_seating": "yes"}}, {"type": "node", "id": 6797146023, "lat": 30.2834028, "lon": -97.7413494, "tags": {"addr:city": "Austin", "addr:postcode": "78705", "addr:state": "TX", "addr:street": "Guadalupe Street", "amenity": "cafe", "brand": "Gong Cha", "brand:wikidata": "Q5581670", "brand:zh": "\u8ca2\u8336", "cuisine": "bubble_tea", "int_name": "Gong Cha", "level": "1", "name": "Gong Cha", "name:zh": "\u8ca2\u8336", "outdoor_seating": "no", "takeaway": "yes"}}, {"type": "node", "id": 8119665866, "lat": 30.2825598, "lon": -97.7422354, "tags": {"addr:city": "Austin", "addr:housenumber": "1910", "addr:postcode": "78705", "addr:state": "TX", "addr:street": "Guadalupe Street", "amenity": "cafe", "cuisine": "taiwanese;cafe;drinks;bubble_tea", "internet_access": "wlan", "name": "CoCo's Cafe", "opening_hours": "Mo-Th 11:00-21:00; Fr-Su 11:30-21:30", "opening_hours:covid19": "\"Take out only\"", "phone": "+1-512-236-9398", "website": "https://www.cocos-cafe.com/"}}, {"type": "node", "id": 10002824434, "lat": 30.2827856, "lon": -97.742446}, {"type": "node", "id": 11183984021, "lat": 30.2879616, "lon": -97.7426235, "tags": {"amenity": "cafe", "brand": "Starbucks", "brand:wikidata": "Q37158", "cuisine": "coffee_shop", "name": "Starbucks", "official_name": "Starbucks Coffee", "takeaway": "yes"}}, {"type": "node", "id": 11198016149, "lat": 30.2824609, "lon": -97.7424722}, {"type": "node", "id": 11198016150, "lat": 30.2825478, "lon": -97.7424648}, {"type": "node", "id": 11198016151, "lat": 30.2825331, "lon": -97.7422304}, {"type": "node", "id": 11198016152, "lat": 30.2825873, "lon": -97.7422258}, {"type": "node", "id": 11198016153, "lat": 30.2825901, "lon": -97.7422691}, {"type": "node", "id": 11198016154, "lat": 30.2825986, "lon": -97.7424066}, {"type": "node", "id": 11198016155, "lat": 30.2826778, "lon": -97.742482}, {"type": "node", "id": 11198016156, "lat": 30.2826036, "lon": -97.7424883}, {"type": "node", "id": 11198016157, "lat": 30.2826544, "lon": -97.7422637}, {"type": "node", "id": 11198016159, "lat": 30.2825879, "lon": -97.7422326}, {"type": "node", "id": 11198016160, "lat": 30.2826859, "lon": -97.7426047}, {"type": "node", "id": 11198016161, "lat": 30.2826103, "lon": -97.7426107}, {"type": "node", "id": 11198016162, "lat": 30.282865, "lon": -97.7422067}, {"type": "node", "id": 11198016163, "lat": 30.2828792, "lon": -97.742472}, {"type": "node", "id": 11198016164, "lat": 30.2829224, "lon": -97.7424687}, {"type": "node", "id": 11198016165, "lat": 30.2829088, "lon": -97.7422037}, {"type": "node", "id": 11198016172, "lat": 30.2829199, "lon": -97.7424218}, {"type": "node", "id": 11198016173, "lat": 30.2829183, "lon": -97.7423827}, {"type": "node", "id": 11198016174, "lat": 30.2829272, "lon": -97.7424213}, {"type": "node", "id": 11198016175, "lat": 30.2829251, "lon": -97.7423822}, {"type": "node", "id": 11212844007, "lat": 30.2850801, "lon": -97.7447361, "tags": {"addr:city": "Austin", "addr:housenumber": "611", "addr:postcode": "78705", "addr:state": "TX", "addr:street": "West 22nd Street", "air_conditioning": "yes", "amenity": "cafe", "brand": "Starbucks", "brand:wikidata": "Q37158", "cuisine": "coffee_shop", "name": "Starbucks", "official_name": "Starbucks Coffee", "opening_hours": "Mo-Fr 05:30-19:30; Sa-Su 06:00-19:30", "phone": "+1-512-768-0910", "takeaway": "yes", "website": "https://www.starbucks.com/store-locator/store/1031272/"}}, {"type": "node", "id": 11212844030, "lat": 30.2870884, "lon": -97.7448994, "tags": {"addr:city": "Austin", "addr:housenumber": "2222", "addr:postcode": "78705", "addr:state": "TX", "addr:street": "Rio Grande Street", "addr:unit": "C190", "amenity": "restaurant", "cuisine": "pizza", "name": "Zalat Pizza", "phone": "+1-512-661-0420", "website": "https://zalatpizza.com/z30/"}}, {"type": "node", "id": 11212844032, "lat": 30.286841, "lon": -97.7449201, "tags": {"addr:city": "Austin", "addr:housenumber": "2222", "addr:postcode": "78705", "addr:state": "TX", "addr:street": "Rio Grande Street", "addr:unit": "C120", "amenity": "cafe", "cuisine": "bubble_tea", "name": "TSAOCAA", "name:zh-Hant": "\u671d\u8336", "website": "https://www.tsaocaatx.com/"}}, {"type": "way", "id": 366244322, "nodes": [3702250405, 3702250401, 3702250393, 3702250390, 3702250394, 3702250398, 3702250399, 3702250403, 3702250402, 3702250405], "tags": {"addr:city": "Austin", "addr:housenumber": "2426", "addr:postcode": "78705", "addr:state": "TX", "addr:street": "Guadalupe Street", "amenity": "restaurant", "brand": "CAVA", "brand:wikidata": "Q85751038", "building": "yes", "building:levels": "1", "cuisine": "mediterranean", "name": "CAVA", "opening_hours": "Mo-Su 10:45-22:00"}}, {"type": "way", "id": 380922395, "nodes": [11198016149, 3842175224, 3842175206, 3842175210, 11198016149], "tags": {"addr:city": "Austin", "addr:housenumber": "1906", "addr:postcode": "78705", "addr:state": "TX", "addr:street": "Guadalupe Street", "amenity": "cafe", "building": "yes", "cuisine": "bubble_tea", "height": "10.0", "import": "yes", "name": "Tapioca House", "source": "City of Austin"}}, {"type": "way", "id": 380922399, "nodes": [11198016153, 11198016154, 3842175227, 3842175240, 11198016157, 11198016153], "tags": {"addr:city": "Austin", "addr:housenumber": "1914", "addr:postcode": "78705", "addr:state": "TX", "addr:street": "Guadalupe Street", "addr:unit": "A", "amenity": "restaurant", "building": "yes", "cuisine": "ramen", "height": "10.0", "import": "yes", "name": "Look Noodles & More", "source": "City of Austin", "website": "https://looknoodles.com/"}}, {"type": "way", "id": 380922467, "nodes": [3842175313, 3842175273, 3842175274, 3842175262, 10002824434, 3842175271, 3842175287, 3842175313], "tags": {"addr:city": "Austin", "addr:housenumber": "2000", "addr:postcode": "78705", "addr:state": "TX", "addr:street": "Guadalupe Street", "air_conditioning": "yes", "amenity": "cafe", "building": "yes", "cuisine": "bubble_tea", "height": "12.2", "import": "yes", "name": "M\u00f6ge Tee", "name:zh-Hant": "\u613f\u8336", "opening_hours": "Su-Th 11:00-22:00; Fr-Sa 11:00-23:00", "phone": "+1-929-380-7727", "source": "City of Austin", "website": "https://www.mogeteeusa.com/"}}, {"type": "way", "id": 1208522902, "nodes": [11198016149, 11198016150, 11198016151, 3842175224, 11198016149], "tags": {"addr:city": "Austin", "addr:housenumber": "1908", "addr:postcode": "78705", "addr:state": "TX", "addr:street": "Guadalupe Street", "amenity": "restaurant", "building": "yes", "cuisine": "vietnamese", "name": "Ph\u1edf Th\u00e1is\u01a1n", "opening_hours": "We-Mo 11:00-21:00"}}, {"type": "way", "id": 1208522903, "nodes": [3842175226, 11198016150, 11198016151, 11198016152, 11198016159, 11198016153, 11198016154, 3842175226], "tags": {"amenity": "restaurant", "building": "yes"}}, {"type": "way", "id": 1208522904, "nodes": [3842175227, 11198016155, 11198016156, 3842175226, 11198016154, 3842175227], "tags": {"addr:city": "Austin", "addr:housenumber": "1914", "addr:postcode": "78705", "addr:state": "TX", "addr:street": "Guadalupe Street", "addr:unit": "C", "amenity": "restaurant", "building": "yes"}}, {"type": "way", "id": 1208522907, "nodes": [11198016155, 11198016160, 11198016161, 11198016156, 11198016155], "tags": {"addr:city": "Austin", "addr:housenumber": "1914", "addr:postcode": "78705", "addr:state": "TX", "addr:street": "Guadalupe Street", "addr:unit": "B", "amenity": "restaurant", "building": "yes", "cuisine": "chinese", "name": "China Family", "name:zh-Hans": "\u996d\u7c73\u7c92", "name:zh-Hant": "\u98ef\u7c73\u7c92", "opening_hours": "Mo-Th 11:00-21:30; Fr-Su 11:00-22:00", "phone": "+1-512-284-7671", "website": "https://chinafamilytx.com/"}}, {"type": "way", "id": 1208522909, "nodes": [11198016163, 11198016164, 11198016172, 11198016174, 11198016175, 11198016173, 11198016165, 11198016162, 11198016163], "tags": {"addr:city": "Austin", "addr:housenumber": "2002", "addr:postcode": "78705", "addr:state": "TX", "addr:street": "Guadalupe Street", "addr:unit": "B", "air_conditioning": "yes", "amenity": "restaurant", "building": "yes", "cuisine": "korean", "name": "K-Bop", "opening_hours": "Mo-Tu 11:00-21:30; We 11:00-17:10; Th-Sa 11:00-21:30", "phone": "+1-737-222-5501", "website": "https://www.kbopaustin.com/"}}]}