{"version": 0.6, "generator": "Overpass API 0.7.61.5 4133829e", "osm3s": {"timestamp_osm_base": "2024-01-28T03:51:45Z", "copyright": "The data included in this document is from www.openstreetmap.org. The data is made available under ODbL."}, "elements": [{"type": "node", "id": 338450996, "lat": 30.2685706, "lon": -97.7422257, "tags": {"addr:city": "Austin", "addr:housenumber": "617", "addr:postcode": "78701", "addr:state": "TX", "addr:street": "Congress Avenue", "amenity": "theatre", "internet_access": "yes", "name": "The Hideout Theater"}}, {"type": "node", "id": 338450997, "lat": 30.2682668, "lon": -97.7429695, "tags": {"amenity": "cafe", "brand": "Starbucks", "brand:wikidata": "Q37158", "cuisine": "coffee_shop", "name": "Starbucks", "official_name": "Starbucks Coffee", "opening_hours": "Mo-Fr 05:30-21:00, Sa,Su 06:30-19:00", "takeaway": "yes"}}, {"type": "node", "id": 338451013, "lat": 30.271876, "lon": -97.7411784, "tags": {"amenity": "cafe", "brand": "Starbucks", "brand:wikidata": "Q37158", "cuisine": "coffee_shop", "name": "Starbucks", "official_name": "Starbucks Coffee", "takeaway": "yes"}}, {"type": "node", "id": 1148144462, "lat": 30.2686456, "lon": -97.7423865}, {"type": "node", "id": 1152899913, "lat": 30.267478, "lon": -97.7440007}, {"type": "node", "id": 1152899965, "lat": 30.267688, "lon": -97.7442833}, {"type": "node", "id": 1152899989, "lat": 30.2677335, "lon": -97.743663}, {"type": "node", "id": 1152899993, "lat": 30.2675985, "lon": -97.7431792}, {"type": "node", "id": 1152900003, "lat": 30.2675977, "lon": -97.7439561}, {"type": "node", "id": 1154535719, "lat": 30.2705487, "lon": -97.7484313}, {"type": "node", "id": 1154535816, "lat": 30.270404, "lon": -97.7485906}, {"type": "node", "id": 1154535944, "lat": 30.27025, "lon": -97.7486514}, {"type": "node", "id": 1154536010, "lat": 30.2702757, "lon": -97.7484236}, {"type": "node", "id": 1154536221, "lat": 30.2701911, "lon": -97.7484394}, {"type": "node", "id": 1154536223, "lat": 30.2705195, "lon": -97.7483297}, {"type": "node", "id": 1154536285, "lat": 30.2702713, "lon": -97.7484084}, {"type": "node", "id": 1154536421, "lat": 30.2703797, "lon": -97.7484964}, {"type": "node", "id": 1481633344, "lat": 30.2675896, "lon": -97.7406574, "tags": {"amenity": "restaurant", "name": "Bikinis Sports Bar & Grill", "website": "https://www.bikinissportsbarandgrill.com/Locations/austin-tx-6th-st/"}}, {"type": "node", "id": 1481633362, "lat": 30.2673138, "lon": -97.7409874, "tags": {"amenity": "restaurant", "name": "Marisco Grill"}}, {"type": "node", "id": 1481633376, "lat": 30.2677567, "lon": -97.7412563, "tags": {"amenity": "restaurant", "name": "Eureka"}}, {"type": "node", "id": 1481633389, "lat": 30.2686611, "lon": -97.7454947, "tags": {"amenity": "restaurant", "name": "Belmont"}}, {"type": "node", "id": 1483931073, "lat": 30.2694661, "lon": -97.7435164, "tags": {"amenity": "restaurant", "name": "Perry's Steakhouse"}}, {"type": "node", "id": 1483931076, "lat": 30.2701619, "lon": -97.7432887, "tags": {"amenity": "cafe", "name": "The Amsterdam"}}, {"type": "node", "id": 1483931096, "lat": 30.271294, "lon": -97.7418546, "tags": {"amenity": "restaurant", "cuisine": "italian", "name": "Quattro Gatti Ristorante", "old_name": "Marakesh Bar & Grill", "opening_hours": "Mo-Th 11:00-22:00;Fr 11:00-23:00;Sa 13:00-23:00", "phone": "+1-512-476-3131", "website": "http://www.quattrogattiaustin.com/"}}, {"type": "node", "id": 1483931115, "lat": 30.2690633, "lon": -97.7421993, "tags": {"addr:housenumber": "701", "addr:postcode": "78701", "addr:street": "Crongress Avenue", "amenity": "restaurant", "cuisine": "steak_house", "name": "Roaring Fork", "wheelchair": "yes"}}, {"type": "node", "id": 1489699385, "lat": 30.266973, "lon": -97.7456939, "tags": {"amenity": "cafe", "cuisine": "coffee_shop", "internet_access": "wlan", "internet_access:fee": "no", "name": "Halcyon"}}, {"type": "node", "id": 2332626583, "lat": 30.267202, "lon": -97.740299, "tags": {"amenity": "restaurant", "cuisine": "american", "name": "parkside"}}, {"type": "node", "id": 2675179188, "lat": 30.268835, "lon": -97.741283, "tags": {"amenity": "cafe", "drive_through": "no", "name": "Slake Cafe", "outdoor_seating": "no", "takeaway": "yes"}}, {"type": "node", "id": 3353538589, "lat": 30.2692143, "lon": -97.7416617}, {"type": "node", "id": 3353538591, "lat": 30.2693473, "lon": -97.7421384}, {"type": "node", "id": 3353538592, "lat": 30.2694109, "lon": -97.7415882}, {"type": "node", "id": 3353538793, "lat": 30.2695269, "lon": -97.7415448}, {"type": "node", "id": 3353538794, "lat": 30.2695439, "lon": -97.7420648}, {"type": "node", "id": 3353538796, "lat": 30.2696598, "lon": -97.7420215}, {"type": "node", "id": 3354445001, "lat": 30.2667895, "lon": -97.745195}, {"type": "node", "id": 3354445003, "lat": 30.2668097, "lon": -97.7452674}, {"type": "node", "id": 3354445031, "lat": 30.2671179, "lon": -97.7450722}, {"type": "node", "id": 3354445034, "lat": 30.2671381, "lon": -97.7451446}, {"type": "node", "id": 3849778288, "lat": 30.2686128, "lon": -97.7478966, "tags": {"addr:housenumber": "500", "addr:postcode": "78701", "addr:street": "West 5th Street", "amenity": "restaurant", "cuisine": "chinese", "name": "Wu Chow", "opening_hours": "Mo-Fr 11:00-14:00, Mo-Th 17:00-22:00, Fr,Sa 17:00-23:00; Su 11:00-15:00", "website": "https://wuchowaustin.com/"}}, {"type": "node", "id": 3849778796, "lat": 30.2681344, "lon": -97.7425331, "tags": {"addr:city": "Austin", "addr:housenumber": "601", "addr:postcode": "78701", "addr:state": "TX", "addr:street": "Congress Avenue", "addr:unit": "100", "amenity": "cafe", "cuisine": "coffee_shop", "name": "Capital One Caf\u00e9"}}, {"type": "node", "id": 3849779903, "lat": 30.270247, "lon": -97.742287, "tags": {"addr:housenumber": "802", "addr:postcode": "78701", "addr:street": "Congress Avenue", "amenity": "cafe", "name": "Caffe Medici"}}, {"type": "node", "id": 4906380121, "lat": 30.2674422, "lon": -97.742689, "tags": {"addr:housenumber": "503", "addr:postcode": "78701", "addr:street": "Colorado Street", "amenity": "cafe", "cuisine": "breakfast;coffee_shop", "diet:vegetarian": "yes", "name": "My Name Is Joe Coffee", "opening_hours": "Mo-Fr 07:00-15:00", "website": "http://mynameisjoe.com"}}, {"type": "node", "id": 4948072426, "lat": 30.2679982, "lon": -97.7434085, "tags": {"amenity": "restaurant", "brand": "Ruth's Chris Steak House", "brand:wikidata": "Q7382829", "cuisine": "american", "name": "Ruth's Chris Steak House"}}, {"type": "node", "id": 4948072436, "lat": 30.2682677, "lon": -97.7440327, "tags": {"addr:city": "Austin", "addr:housenumber": "123", "addr:postcode": "78701", "addr:state": "TX", "addr:street": "West 6th Street", "air_conditioning": "yes", "amenity": "restaurant", "cuisine": "western", "name": "Lonesome Dove Bistro", "start_date": "2022-03-01", "website": "https://lonesomedoveaustin.com/"}}, {"type": "node", "id": 4948072438, "lat": 30.2684788, "lon": -97.7435626, "tags": {"amenity": "restaurant", "name": "Athenian Bar & Grill"}}, {"type": "node", "id": 5771939719, "lat": 30.2703884, "lon": -97.7450556, "tags": {"amenity": "restaurant", "name": "Luby's Cafeteria", "takeaway": "yes"}}, {"type": "node", "id": 6795476806, "lat": 30.268145, "lon": -97.7474393}, {"type": "node", "id": 6795476807, "lat": 30.2680993, "lon": -97.747456}, {"type": "node", "id": 6795476808, "lat": 30.26814, "lon": -97.7475974}, {"type": "node", "id": 6795476809, "lat": 30.2681836, "lon": -97.7475812}, {"type": "node", "id": 7313191255, "lat": 30.2673156, "lon": -97.7464984, "tags": {"addr:city": "Austin", "addr:housenumber": "400", "addr:postcode": "78701", "addr:state": "TX", "addr:street": "Lavaca Street", "amenity": "restaurant", "cuisine": "american", "name": "Group Therapy", "opening_hours": "Sa-Su 06:30-16:00 \"brunch\"; Mo-Fr 06:30-11:00 \"breakfast\"; Mo-Th,Su 16:00-22:00 \"dinner\"; Fr,Sa 16:00-23:00 \"dinner\"; Mo-Th,Su 22:00-24:00 \"bar only\"; Fr,Sa 23:00-02:00 \"bar only\"", "phone": "+1-888-880-3244", "website": "https://www.hotelzaza.com/austin/dining/group-therapy"}}, {"type": "node", "id": 8603177932, "lat": 30.2668378, "lon": -97.7416656}, {"type": "node", "id": 8603177933, "lat": 30.2666115, "lon": -97.7408519}, {"type": "node", "id": 8603177934, "lat": 30.2669333, "lon": -97.740732}, {"type": "node", "id": 8955666710, "lat": 30.2687991, "lon": -97.748568, "tags": {"addr:city": "Austin", "addr:housenumber": "500", "addr:postcode": "78701", "addr:state": "TX", "addr:street": "West 5th Street", "air_conditioning": "yes", "amenity": "restaurant", "cuisine": "southern", "name": "Fixe Southern House", "smoking": "no"}}, {"type": "node", "id": 8999352176, "lat": 30.2681792, "lon": -97.7475644, "tags": {"entrance": "yes"}}, {"type": "node", "id": 8999352177, "lat": 30.2681358, "lon": -97.7475817, "tags": {"entrance": "yes"}}, {"type": "node", "id": 9136489517, "lat": 30.2679973, "lon": -97.7431294, "tags": {"addr:housenumber": "522", "addr:postcode": "78701", "addr:street": "Congress Avenue", "amenity": "restaurant", "name": "Velvet Taco"}}, {"type": "node", "id": 9414622822, "lat": 30.2679477, "lon": -97.7435819}, {"type": "node", "id": 9414622823, "lat": 30.2678105, "lon": -97.7430989}, {"type": "node", "id": 9416826437, "lat": 30.2669266, "lon": -97.7416325}, {"type": "node", "id": 9416826438, "lat": 30.266751, "lon": -97.7409981}, {"type": "node", "id": 9416826439, "lat": 30.2669829, "lon": -97.7409105}, {"type": "node", "id": 9416826444, "lat": 30.2667769, "lon": -97.7409897}, {"type": "node", "id": 9416826445, "lat": 30.2667252, "lon": -97.7408095}, {"type": "node", "id": 9416826447, "lat": 30.266661, "lon": -97.7410301}, {"type": "node", "id": 9416826448, "lat": 30.2666955, "lon": -97.7411539}, {"type": "node", "id": 9416826450, "lat": 30.266785, "lon": -97.7411203}, {"type": "node", "id": 9416826452, "lat": 30.2669523, "lon": -97.7409223}, {"type": "node", "id": 9494461576, "lat": 30.2675718, "lon": -97.7443265}, {"type": "node", "id": 9571217690, "lat": 30.2672548, "lon": -97.7471061, "tags": {"addr:city": "Austin", "addr:housenumber": "422", "addr:postcode": "78701", "addr:state": "TX", "addr:street": "Guadalupe Street", "amenity": "marketplace", "email": "info@sustainablefoodcenter.org", "name": "Sustainable Food Center Farmers' Market", "name:es": "Mercado Agr\u00edcola de SFC", "opening_hours": "Sa 09:00-13:00", "operator": "Sustainable Food Center", "operator:abbr": "SFC", "phone": "+1-512-236-0074", "short_name": "SFC Farmers' Market", "website": "https://sustainablefoodcenter.org/farmers-market/downtown"}}, {"type": "node", "id": 10245293658, "lat": 30.2697418, "lon": -97.7419028, "tags": {"addr:city": "Austin", "addr:housenumber": "721", "addr:postcode": "78701", "addr:state": "TX", "addr:street": "Congress Avenue", "air_conditioning": "yes", "amenity": "restaurant", "cuisine": "texan", "level": "0", "name": "Luminaire", "opening_date": "2023-02-01", "opening_hours": "Mo-Su 06:00-23:00", "outdoor_seating": "yes", "toilets": "yes", "website": "https://www.hyatt.com/hyatt-centric/ausct-hyatt-centric-congress-avenue-austin/dining", "wheelchair": "yes"}}, {"type": "node", "id": 10281193544, "lat": 30.2687274, "lon": -97.7423317, "tags": {"addr:city": "Austin", "addr:housenumber": "621", "addr:postcode": "78701", "addr:state": "TX", "addr:street": "Congress Avenue", "addr:unit": "101", "air_conditioning": "yes", "amenity": "restaurant", "bar": "yes", "cuisine": "american", "level": "0", "name": "Caroline", "opening_hours": "Su-Th 07:00-22:00; Fr-Sa 07:00-23:00", "outdoor_seating": "yes", "reservation": "yes", "takeaway": "yes", "website": "https://www.carolinerestaurant.com/caroline", "wheelchair": "yes"}}, {"type": "node", "id": 10281193549, "lat": 30.2687874, "lon": -97.7421935, "tags": {"addr:city": "Austin", "addr:housenumber": "109", "addr:postcode": "78701", "addr:state": "TX", "addr:street": "East 7th Street", "amenity": "cafe", "name": "The Coffehouse at Caroline", "opening_hours": "Mo-Su 06:00-19:00", "website": "https://www.carolinerestaurant.com/the-coffeehouse-at-caroline"}}, {"type": "node", "id": 11242814774, "lat": 30.2678241, "lon": -97.7426153, "tags": {"addr:city": "Austin", "addr:housenumber": "515", "addr:postcode": "78701", "addr:state": "TX", "addr:street": "Congress Avenue", "amenity": "restaurant", "brand": "CAVA", "brand:wikidata": "Q85751038", "cuisine": "mediterranean", "name": "CAVA"}}, {"type": "node", "id": 11242814776, "lat": 30.2686227, "lon": -97.7422994}, {"type": "node", "id": 11242814791, "lat": 30.2685903, "lon": -97.7424083}, {"type": "node", "id": 11242814792, "lat": 30.2684879, "lon": -97.7420367}, {"type": "node", "id": 11242814794, "lat": 30.2684642, "lon": -97.7419466}, {"type": "node", "id": 11242814795, "lat": 30.2685219, "lon": -97.7419262}, {"type": "way", "id": 99868611, "nodes": [1154535719, 1154536223, 1154536010, 1154536285, 1154536221, 1154535944, 1154535816, 1154536421, 1154535719], "tags": {"addr:housenumber": "610", "addr:postcode": "78701", "addr:street": "Nueces Street", "amenity": "restaurant", "building": "yes", "name": "Ranch 616"}}, {"type": "way", "id": 328526454, "nodes": [3353538794, 3353538592, 3353538589, 3353538591, 3353538794], "tags": {"addr:city": "Austin", "addr:housenumber": "713", "addr:postcode": "78701", "addr:state": "TX", "addr:street": "Congress Avenue", "amenity": "theatre", "architect": "John Eberson", "building": "yes", "building:levels": "5", "height": "19.2024", "heritage": "yes", "historic": "building", "image": "http://commons.wikimedia.org/wiki/File:Paramount_austin_2012.jpg", "name": "Paramount Theatre", "source:geometry": "Bing", "start_date": "1915-10-11", "website": "https://www.austintheatre.org/", "wikidata": "Q7756086", "wikipedia": "en:Paramount Theatre (Austin, Texas)"}}, {"type": "way", "id": 328526455, "nodes": [3353538796, 3353538793, 3353538592, 3353538794, 3353538796], "tags": {"addr:city": "Austin", "addr:housenumber": "719", "addr:postcode": "78701", "addr:state": "TX", "addr:street": "Congress Avenue", "amenity": "cinema", "building": "yes", "name": "State Theatre", "source:geometry": "Bing", "website": "https://www.austintheatre.org/", "wikidata": "Q42298482"}}, {"type": "way", "id": 328631276, "nodes": [3354445034, 3354445031, 3354445001, 3354445003, 3354445034], "tags": {"addr:city": "Austin", "addr:housenumber": "208", "addr:postcode": "78701", "addr:state": "TX", "addr:street": "West 4th Street", "amenity": "restaurant", "building": "yes", "cuisine": "french", "name": "P\u00e9ch\u00e9", "phone": "+15123798249", "website": "http://www.pecheaustin.com/"}}, {"type": "way", "id": 724582090, "nodes": [6795476806, 6795476807, 8999352177, 6795476808, 6795476809, 8999352176, 6795476806], "tags": {"addr:city": "Austin", "addr:housenumber": "422", "addr:postcode": "78701", "addr:state": "TX", "addr:street": "Guadalupe Street", "addr:unit": "C", "amenity": "cafe", "building": "retail", "building:levels": "1", "cuisine": "american", "name": "Rosen's Bagels", "opening_date": "2019-09-01", "opening_hours": "Mo-Fr 07:00-14:00; Sa-Su 08:00-15:00", "outdoor_seating": "yes", "website": "https://www.rosensbagels.com/"}}, {"type": "way", "id": 1020754976, "nodes": [9414622822, 9414622823, 1152899993, 1152899989, 9414622822], "tags": {"addr:city": "Austin", "addr:housenumber": "522", "addr:postcode": "78701", "addr:state": "TX", "addr:street": "Congress Avenue", "amenity": "restaurant", "cuisine": "american", "name": "Punch Bowl Social"}}, {"type": "way", "id": 1021003040, "nodes": [9416826437, 9416826450, 9416826438, 9416826444, 9416826452, 9416826439, 8603177934, 9416826445, 8603177933, 9416826447, 9416826448, 8603177932, 9416826437], "tags": {"addr:city": "Austin", "addr:housenumber": "506", "addr:postcode": "78701", "addr:state": "TX", "addr:street": "San Jacinto Boulevard", "air_conditioning": "yes", "amenity": "restaurant", "bar": "yes", "description": "Restaurant on Level 4 of the Thompson and tommie hotel buildings", "level": "3", "name": "Wax Myrtle's Club & Pool", "website": "https://www.waxmyrtles.com/"}}, {"type": "way", "id": 1029943785, "nodes": [1152899965, 9494461576, 1152899913, 1152900003, 1152899965], "tags": {"addr:city": "Austin", "addr:housenumber": "501", "addr:postcode": "78701", "addr:state": "TX", "addr:street": "Colorado Street", "air_conditioning": "yes", "amenity": "restaurant", "bar": "yes", "building": "yes", "cuisine": "mexican", "name": "Comedor", "phone": "+15124990977", "website": "https://comedortx.com/"}}, {"type": "way", "id": 1213502018, "nodes": [1148144462, 11242814791, 11242814792, 11242814794, 11242814795, 11242814776, 1148144462], "tags": {"addr:city": "Austin", "addr:housenumber": "617", "addr:postcode": "78701", "addr:state": "TX", "addr:street": "Congress Avenue", "amenity": "cafe", "building": "yes", "cuisine": "coffee_shop", "name": "The Hideout Coffee House"}}]}