{"version": 0.6, "generator": "Overpass API 0.7.61.5 4133829e", "osm3s": {"timestamp_osm_base": "2023-09-27T02:02:36Z", "copyright": "The data included in this document is from www.openstreetmap.org. The data is made available under ODbL."}, "elements": [{"type": "node", "id": 860544255, "lat": 30.3618881, "lon": -97.7177864}, {"type": "node", "id": 860544256, "lat": 30.3617113, "lon": -97.7177351}, {"type": "node", "id": 860544257, "lat": 30.3617392, "lon": -97.7175626}, {"type": "node", "id": 860544258, "lat": 30.361688, "lon": -97.7175491}, {"type": "node", "id": 860544259, "lat": 30.3616973, "lon": -97.7175114}, {"type": "node", "id": 860544260, "lat": 30.361902, "lon": -97.7175815}, {"type": "node", "id": 860544261, "lat": 30.3618741, "lon": -97.7176812}, {"type": "node", "id": 860544262, "lat": 30.3619067, "lon": -97.7176947}, {"type": "node", "id": 860544292, "lat": 30.3637327, "lon": -97.7181894}, {"type": "node", "id": 860544294, "lat": 30.3636473, "lon": -97.7185472}, {"type": "node", "id": 860544295, "lat": 30.3635533, "lon": -97.7185171}, {"type": "node", "id": 860544296, "lat": 30.3636387, "lon": -97.7181592}, {"type": "node", "id": 1481365417, "lat": 30.3617837, "lon": -97.7153938, "tags": {"addr:housename": "Suite # 146", "addr:housenumber": "8557", "addr:postcode": "78758", "addr:street": "Research Blvd", "amenity": "restaurant", "cuisine": "vietnamese", "name": "Sunflower Restaurant", "phone": "+1-512-339-7860", "source": "local_knowledge"}}, {"type": "node", "id": 1481370521, "lat": 30.361094, "lon": -97.7156191, "tags": {"addr:housename": "Suite #116", "addr:housenumber": "8557", "addr:postcode": "78758", "addr:street": "Research Blvd", "amenity": "restaurant", "cuisine": "chinese", "name": "Din Ho Chinese BBQ", "phone": "+1-512-832-8788", "source": "local_knowledge", "website": "https://www.dinhochinesebbq.com/"}}, {"type": "node", "id": 2527535404, "lat": 30.3635213, "lon": -97.7194319, "tags": {"addr:city": "Austin", "addr:housenumber": "8716", "addr:postcode": "78758", "addr:state": "TX", "addr:street": "Research Boulevard", "addr:unit": "290", "amenity": "restaurant", "cuisine": "mexican;bakery", "email": "info@mtrbakery.com", "name": "Mi Tradici\u00f3n Panader\u00eda", "opening_hours": "Mo-Su 07:00-21:30", "phone": "+15123749910", "website": "https://mitradicionbakery.com/"}}, {"type": "node", "id": 2527535407, "lat": 30.3659072, "lon": -97.7198348, "tags": {"amenity": "restaurant", "name": "Sea Dragon"}}, {"type": "node", "id": 3146027914, "lat": 30.3626624, "lon": -97.7185807, "tags": {"addr:city": "Austin", "addr:housenumber": "1725", "addr:postcode": "78757", "addr:street": "Ohlen Road", "amenity": "restaurant", "cuisine": "chicken", "name": "Pollo Regio"}}, {"type": "node", "id": 3190845113, "lat": 30.3612087, "lon": -97.7152193, "tags": {"addr:housenumber": "8557", "addr:street": "Research Boulevard", "amenity": "restaurant", "cuisine": "chinese", "name": "Ramen Tatsu-Ya"}}, {"type": "node", "id": 3921350134, "lat": 30.36113, "lon": -97.7154947, "tags": {"amenity": "restaurant", "cuisine": "asian", "name": "Pho Van Vietnamese"}}, {"type": "node", "id": 6358021988, "lat": 30.3621042, "lon": -97.7177062, "tags": {"amenity": "restaurant", "cuisine": "mexican", "name": "La Tapatia"}}, {"type": "way", "id": 72486497, "nodes": [860544255, 860544256, 860544257, 860544258, 860544259, 860544260, 860544261, 860544262, 860544255], "tags": {"addr:housenumber": "8578", "addr:postcode": "78757", "addr:street": "Research Boulevard", "amenity": "cafe", "building": "yes", "name": "River City Doughnut & Coffee House"}}, {"type": "way", "id": 72486514, "nodes": [860544292, 860544294, 860544295, 860544296, 860544292], "tags": {"addr:city": "Austin", "addr:housenumber": "8702", "addr:postcode": "78757", "addr:street": "Research Boulevard", "amenity": "restaurant", "building": "yes", "cuisine": "pollo_asado", "name": "El Pollo Rico", "website": "http://pollosricos.com/"}}]}