{"version": 0.6, "generator": "Overpass API 0.7.61.5 4133829e", "osm3s": {"timestamp_osm_base": "2024-01-28T03:50:45Z", "copyright": "The data included in this document is from www.openstreetmap.org. The data is made available under ODbL."}, "elements": [{"type": "node", "id": 919327830, "lat": 30.2496256, "lon": -97.7663914, "tags": {"amenity": "restaurant", "cuisine": "mexican;tacos", "name": "Masa y Mas"}}, {"type": "node", "id": 919327832, "lat": 30.2499685, "lon": -97.7670565, "tags": {"addr:housenumber": "1816", "addr:postcode": "78704", "addr:street": "South Lamar Boulevard", "amenity": "restaurant", "cuisine": "mexican", "name": "Sazon", "phone": "+1-512-326-4395"}}, {"type": "node", "id": 919327835, "lat": 30.2512104, "lon": -97.7657583, "tags": {"amenity": "cafe", "name": "Picnik"}}, {"type": "node", "id": 919334307, "lat": 30.252256, "lon": -97.7635926, "tags": {"amenity": "cafe", "brand": "Starbucks", "brand:wikidata": "Q37158", "contact:website": "https://www.starbucks.com/store-locator/store/12397/s-lamar-collier-1509-south-lamar-blvd-suite-100-austin-tx-78704296", "cuisine": "coffee_shop", "name": "Starbucks", "official_name": "Starbucks Coffee", "takeaway": "yes"}}, {"type": "node", "id": 3281003849, "lat": 30.2489743, "lon": -97.7689416, "tags": {"amenity": "restaurant", "cuisine": "mexican", "name": "El Meson", "not:brand:wikidata": "Q5351585"}}, {"type": "node", "id": 3281003852, "lat": 30.2525772, "lon": -97.7642612, "tags": {"amenity": "restaurant", "cuisine": "italian", "name": "It's Italian Cucina"}}, {"type": "node", "id": 3281003853, "lat": 30.2523316, "lon": -97.7644892, "tags": {"amenity": "restaurant", "cuisine": "spanish", "name": "El Raval"}}, {"type": "node", "id": 3856493856, "lat": 30.248104, "lon": -97.769321}, {"type": "node", "id": 3856493866, "lat": 30.248121, "lon": -97.769261}, {"type": "node", "id": 3856493890, "lat": 30.248155, "lon": -97.769385}, {"type": "node", "id": 3856493897, "lat": 30.248167, "lon": -97.769345}, {"type": "node", "id": 3856493918, "lat": 30.248188, "lon": -97.769287}, {"type": "node", "id": 3856493923, "lat": 30.248195, "lon": -97.769266}, {"type": "node", "id": 3856493924, "lat": 30.248198, "lon": -97.769267}, {"type": "node", "id": 3856494146, "lat": 30.248416, "lon": -97.769485}, {"type": "node", "id": 3856494160, "lat": 30.248451, "lon": -97.769364}, {"type": "node", "id": 3856494441, "lat": 30.248809, "lon": -97.769516}, {"type": "node", "id": 3856494473, "lat": 30.248834, "lon": -97.769424}, {"type": "node", "id": 3856494494, "lat": 30.24885, "lon": -97.76943}, {"type": "node", "id": 3856494615, "lat": 30.24895, "lon": -97.769466}, {"type": "node", "id": 3856494619, "lat": 30.248954, "lon": -97.769453}, {"type": "node", "id": 3856494670, "lat": 30.249005, "lon": -97.769588}, {"type": "node", "id": 3856494696, "lat": 30.249034, "lon": -97.769482}, {"type": "node", "id": 4639135648, "lat": 30.2508607, "lon": -97.7659325, "tags": {"amenity": "restaurant", "cuisine": "brunch", "name": "Snooze"}}, {"type": "node", "id": 11492466914, "lat": 30.2491556, "lon": -97.768525, "tags": {"addr:city": "Austin", "addr:housenumber": "2026", "addr:postcode": "78704", "addr:state": "TX", "addr:street": "South Lamar Boulevard", "amenity": "restaurant", "name": "Elementary"}}, {"type": "node", "id": 11492466915, "lat": 30.2491788, "lon": -97.7684445, "tags": {"addr:city": "Austin", "addr:housenumber": "2024", "addr:postcode": "78704", "addr:state": "TX", "addr:street": "South Lamar Boulevard", "amenity": "restaurant", "cuisine": "thai", "name": "Super Thai Cuisine"}}, {"type": "way", "id": 382450478, "nodes": [3856493924, 3856493923, 3856493918, 3856493866, 3856493856, 3856493897, 3856493890, 3856494146, 3856494160, 3856493924], "tags": {"addr:housenumber": "2043", "addr:street": "South Lamar Boulevard", "amenity": "cafe", "building": "yes", "height": "29.5", "name": "Proud Mary", "outdoor_seating": "yes", "takeaway": "yes"}}, {"type": "way", "id": 382450481, "nodes": [3856494494, 3856494473, 3856494441, 3856494670, 3856494696, 3856494619, 3856494615, 3856494494], "tags": {"addr:housenumber": "2050", "addr:street": "South Lamar Boulevard", "amenity": "cafe", "building": "yes", "cuisine": "greek", "height": "6.7", "name": "OPA! Coffe & Wine Bar"}}]}