{"version": 0.6, "generator": "Overpass API 0.7.61.5 4133829e", "osm3s": {"timestamp_osm_base": "2023-11-07T05:16:09Z", "copyright": "The data included in this document is from www.openstreetmap.org. The data is made available under ODbL."}, "elements": [{"type": "node", "id": 1152899913, "lat": 30.267478, "lon": -97.7440007}, {"type": "node", "id": 1152899965, "lat": 30.267688, "lon": -97.7442833}, {"type": "node", "id": 1152899989, "lat": 30.2677335, "lon": -97.743663}, {"type": "node", "id": 1152899993, "lat": 30.2675985, "lon": -97.7431792}, {"type": "node", "id": 1152900003, "lat": 30.2675977, "lon": -97.7439561}, {"type": "node", "id": 1481364381, "lat": 30.2641976, "lon": -97.7467468, "tags": {"alt_name": "3 Forks", "amenity": "restaurant", "check_date:currency:XBT": "2023-04-07", "cuisine": "steak_house", "currency:XBT": "yes", "name": "III Forks", "payment:lightning": "yes", "payment:lightning_contactless": "no", "payment:onchain": "yes", "source": "survey", "survey:date": "2022-10-15"}}, {"type": "node", "id": 1481511086, "lat": 30.2662426, "lon": -97.7460117}, {"type": "node", "id": 1481511087, "lat": 30.2660185, "lon": -97.7460988}, {"type": "node", "id": 1481511088, "lat": 30.2659431, "lon": -97.745829}, {"type": "node", "id": 1481511099, "lat": 30.266254, "lon": -97.7457086}, {"type": "node", "id": 1483931163, "lat": 30.2650202, "lon": -97.7436591, "tags": {"amenity": "restaurant", "name": "Congress Avenue Grocery"}}, {"type": "node", "id": 1489699385, "lat": 30.266973, "lon": -97.7456939, "tags": {"amenity": "cafe", "cuisine": "coffee_shop", "internet_access": "wlan", "internet_access:fee": "no", "name": "Halcyon"}}, {"type": "node", "id": 3190877885, "lat": 30.2650419, "lon": -97.7460802, "tags": {"addr:housenumber": "242", "addr:street": "West 2nd Street", "amenity": "cafe", "internet_access": "wlan", "name": "Jo's Coffee", "opening_hours": "Mo-Fr 07:00-18:00; Sa,Su 08:00-18:00", "phone": "+1-512-462-9003"}}, {"type": "node", "id": 3245051647, "lat": 30.2652966, "lon": -97.7455299, "tags": {"addr:housenumber": "206", "addr:street": "Colorado Street", "amenity": "restaurant", "cuisine": "sushi", "name": "Bar Chi Sushi"}}, {"type": "node", "id": 3245051655, "lat": 30.2658493, "lon": -97.7465097, "tags": {"amenity": "cafe", "brand": "Starbucks", "brand:wikidata": "Q37158", "brand:wikipedia": "en:Starbucks", "contact:website": "https://www.starbucks.com/store-locator/store/1006594/3rd-lavaca-301-west-3rd-street-austin-tx-787013815-us", "cuisine": "coffee_shop", "name": "Starbucks", "official_name": "Starbucks Coffee", "takeaway": "yes"}}, {"type": "node", "id": 3245054363, "lat": 30.2651262, "lon": -97.7463264, "tags": {"addr:housenumber": "258", "addr:street": "West 2nd Street", "amenity": "restaurant", "cuisine": "italian", "name": "Taverna"}}, {"type": "node", "id": 3245054365, "lat": 30.2650023, "lon": -97.7459789, "tags": {"addr:street": "West 2nd Street", "amenity": "restaurant", "name": "Cru"}}, {"type": "node", "id": 3245054371, "lat": 30.2656186, "lon": -97.7456335, "tags": {"addr:city": "Austin", "addr:housenumber": "205", "addr:postcode": "78701", "addr:state": "TX", "addr:street": "West 3rd Street", "amenity": "restaurant", "cuisine": "seafood", "name": "Bill's Oyster", "website": "https://www.billsoyster.com/", "website:menu": "https://www.billsoyster.com/menu"}}, {"type": "node", "id": 3248316799, "lat": 30.2656885, "lon": -97.7484551, "tags": {"addr:housenumber": "452", "addr:street": "West 2nd Street", "amenity": "restaurant", "cuisine": "italian"}}, {"type": "node", "id": 3248316800, "lat": 30.2651799, "lon": -97.7479269, "tags": {"amenity": "restaurant", "cuisine": "barbecue", "name": "Lamberts"}}, {"type": "node", "id": 3248316807, "lat": 30.265572, "lon": -97.7477644, "tags": {"addr:housenumber": "400", "addr:street": "West 2nd Street", "amenity": "restaurant", "cuisine": "mexican", "name": "La Condesa"}}, {"type": "node", "id": 3354445001, "lat": 30.2667895, "lon": -97.745195}, {"type": "node", "id": 3354445003, "lat": 30.2668097, "lon": -97.7452674}, {"type": "node", "id": 3354445031, "lat": 30.2671179, "lon": -97.7450722}, {"type": "node", "id": 3354445034, "lat": 30.2671381, "lon": -97.7451446}, {"type": "node", "id": 3354471213, "lat": 30.265845, "lon": -97.7438362}, {"type": "node", "id": 3354471216, "lat": 30.2659132, "lon": -97.7440764}, {"type": "node", "id": 3763984362, "lat": 30.264819, "lon": -97.7442485, "tags": {"amenity": "cafe", "name": "Caff\u00e9 Medici"}}, {"type": "node", "id": 3764035157, "lat": 30.2645145, "lon": -97.7443724, "tags": {"addr:city": "Austin", "addr:housenumber": "200", "addr:postcode": "78701", "addr:state": "TX", "addr:street": "Congress Avenue", "air_conditioning": "yes", "amenity": "restaurant", "bar": "yes", "branch": "Austin", "brand": "Fogo de Ch\u00e3o", "brand:wikidata": "Q5464133", "brand:wikipedia": "en:Fogo de Ch\u00e3o", "cuisine": "steak_house;brazilian", "level": "0", "name": "Fogo de Ch\u00e3o", "outdoor_seating": "yes", "phone": "+15124720220", "reservation": "yes", "start_date": "2022-12-23", "takeaway": "yes", "toilets": "yes", "website": "https://fogodechao.com/", "wheelchair": "yes"}}, {"type": "node", "id": 3849775798, "lat": 30.2646193, "lon": -97.7447359, "tags": {"addr:city": "Austin", "addr:housenumber": "200", "addr:postcode": "78701", "addr:state": "TX", "addr:street": "Congress Avenue", "air_conditioning": "yes", "amenity": "restaurant", "branch": "Austin, TX Branch", "brand": "Mason's Famous Lobster Rolls", "cuisine": "seafood", "delivery": "yes", "name": "Mason's Famous Lobster Rolls", "opening_hours": "Mo-Su 11:00-21:00", "outdoor_seating": "yes", "phone": "+1-512-428-4006", "smoking": "no", "website": "https://www.masonslobster.com/"}}, {"type": "node", "id": 3849776324, "lat": 30.264852, "lon": -97.745067, "tags": {"addr:housenumber": "201", "addr:postcode": "78701", "addr:street": "Colorado Street", "amenity": "theatre", "name": "Google Fiber Space", "opening_hours": "Mo-We 10:00-18:00; Th-Sa 10:00-21:00", "phone": "+1-866-777-7550", "website": "https://fiber.google.com/cities/austin/fiberspace/"}}, {"type": "node", "id": 3849776337, "lat": 30.265537, "lon": -97.745401, "tags": {"addr:city": "Austin", "addr:housenumber": "201", "addr:postcode": "78701", "addr:state": "TX", "addr:street": "West 3rd Street", "air_conditioning": "yes", "amenity": "restaurant", "cuisine": "chinese", "name": "Red Farm", "opening_date": "2023-11-08", "phone": "+1-512-859-9700", "reservation": "yes", "toilets": "yes", "website": "https://www.redfarmnyc.com/location/Austin/", "wheelchair": "yes"}}, {"type": "node", "id": 3849778276, "lat": 30.265697, "lon": -97.748514, "tags": {"addr:housenumber": "454", "addr:postcode": "78701", "addr:street": "West 2nd Street", "amenity": "restaurant", "cuisine": "sandwich;american", "name": "Local Foods", "opening_hours": "Mo-Th 10:45-20:00; Fr 10:45-20:30; Sa 09:00-20:30; Su 09:00-20:00", "website": "http://www.localfoodstexas.com/"}}, {"type": "node", "id": 4304618025, "lat": 30.2646732, "lon": -97.7437945, "tags": {"addr:city": "Austin", "addr:housenumber": "110", "addr:postcode": "78701", "addr:state": "TX", "addr:street": "East 2nd Street", "amenity": "restaurant", "cuisine": "burger", "name": "Burger Bar", "opening_hours": "Su-Th 11:00-01:00; Fr,Sa 11:00-02:00", "phone": "+1-512-608-4822", "website": "https://www.burgerbaraustin.com/"}}, {"type": "node", "id": 4304618029, "lat": 30.2644196, "lon": -97.7438985, "tags": {"amenity": "restaurant", "name": "Corner Restaurant"}}, {"type": "node", "id": 4948072433, "lat": 30.2647828, "lon": -97.7437806, "tags": {"amenity": "restaurant", "cuisine": "barbecue", "name": "Cooper's Old Time Pit Bar-B-Que", "opening_hours": "Mo-Su 11:00-24:00"}}, {"type": "node", "id": 4948072436, "lat": 30.2682677, "lon": -97.7440327, "tags": {"addr:city": "Austin", "addr:housenumber": "123", "addr:postcode": "78701", "addr:state": "TX", "addr:street": "West 6th Street", "air_conditioning": "yes", "amenity": "restaurant", "cuisine": "western", "name": "Lonesome Dove Bistro", "start_date": "2022-03-01", "website": "https://lonesomedoveaustin.com/"}}, {"type": "node", "id": 6039911718, "lat": 30.2656592, "lon": -97.7434871, "tags": {"addr:city": "Austin", "addr:housenumber": "315", "addr:postcode": "78701", "addr:state": "TX", "addr:street": "Congress Avenue", "amenity": "restaurant", "cuisine": "fine_dining", "level": "1", "name": "Swift's Attic", "restaurant": "american", "website": "https://swiftsattic.com/"}}, {"type": "node", "id": 6795476806, "lat": 30.268145, "lon": -97.7474393}, {"type": "node", "id": 6795476807, "lat": 30.2680993, "lon": -97.747456}, {"type": "node", "id": 6795476808, "lat": 30.26814, "lon": -97.7475974}, {"type": "node", "id": 6795476809, "lat": 30.2681836, "lon": -97.7475812}, {"type": "node", "id": 7313191255, "lat": 30.2673156, "lon": -97.7464984, "tags": {"addr:city": "Austin", "addr:housenumber": "400", "addr:postcode": "78701", "addr:state": "TX", "addr:street": "Lavaca Street", "amenity": "restaurant", "cuisine": "american", "name": "Group Therapy", "opening_hours": "Sa-Su 06:30-16:00 \"brunch\"; Mo-Fr 06:30-11:00 \"breakfast\"; Mo-Th,Su 16:00-22:00 \"dinner\"; Fr,Sa 16:00-23:00 \"dinner\"; Mo-Th,Su 22:00-24:00 \"bar only\"; Fr,Sa 23:00-02:00 \"bar only\"", "phone": "+1-888-880-3244", "website": "https://www.hotelzaza.com/austin/dining/group-therapy"}}, {"type": "node", "id": 8090124769, "lat": 30.2652973, "lon": -97.7482013, "tags": {"amenity": "cafe", "cuisine": "coffee_shop;ice_cream", "name": "Yummi Joy", "outdoor_seating": "yes"}}, {"type": "node", "id": 8958597082, "lat": 30.2656556, "lon": -97.7483406, "tags": {"air_conditioning": "yes", "amenity": "cinema", "level": "1", "name": "Violet Crown Cinema", "wheelchair": "yes", "wikidata": "Q43009939"}}, {"type": "node", "id": 8999352176, "lat": 30.2681792, "lon": -97.7475644, "tags": {"entrance": "yes"}}, {"type": "node", "id": 8999352177, "lat": 30.2681358, "lon": -97.7475817, "tags": {"entrance": "yes"}}, {"type": "node", "id": 9414594813, "lat": 30.2661642, "lon": -97.7457438}, {"type": "node", "id": 9414594814, "lat": 30.2663406, "lon": -97.7459733}, {"type": "node", "id": 9414594815, "lat": 30.2662623, "lon": -97.7457053}, {"type": "node", "id": 9414607026, "lat": 30.2657708, "lon": -97.7447534}, {"type": "node", "id": 9414607029, "lat": 30.2656547, "lon": -97.7447967}, {"type": "node", "id": 9414607030, "lat": 30.2656012, "lon": -97.7446041}, {"type": "node", "id": 9414607031, "lat": 30.2657173, "lon": -97.7445608}, {"type": "node", "id": 9414622822, "lat": 30.2679477, "lon": -97.7435819}, {"type": "node", "id": 9414622823, "lat": 30.2678105, "lon": -97.7430989}, {"type": "node", "id": 9416656303, "lat": 30.2662415, "lon": -97.7450879}, {"type": "node", "id": 9416656304, "lat": 30.2662803, "lon": -97.7452238}, {"type": "node", "id": 9416656305, "lat": 30.2662025, "lon": -97.7452535}, {"type": "node", "id": 9416656306, "lat": 30.2661637, "lon": -97.7451177}, {"type": "node", "id": 9418356269, "lat": 30.2658943, "lon": -97.7438175}, {"type": "node", "id": 9418356271, "lat": 30.2659629, "lon": -97.7440576}, {"type": "node", "id": 9494461576, "lat": 30.2675718, "lon": -97.7443265}, {"type": "node", "id": 9517424344, "lat": 30.2656405, "lon": -97.7434924, "tags": {"addr:city": "Austin", "addr:housenumber": "315", "addr:postcode": "78701", "addr:state": "TX", "addr:street": "Congress Avenue", "addr:unit": "100", "air_conditioning": "yes", "amenity": "restaurant", "cuisine": "sushi", "name": "Sushi Junai Omakase", "name:ja": "\u3059\u3057\u7d14\u611b\u304a\u4efb\u305b", "website": "http://sushijunaiomakase.com/"}}, {"type": "node", "id": 9571217690, "lat": 30.2672548, "lon": -97.7471061, "tags": {"addr:city": "Austin", "addr:housenumber": "422", "addr:postcode": "78701", "addr:state": "TX", "addr:street": "Guadalupe Street", "amenity": "marketplace", "email": "info@sustainablefoodcenter.org", "name": "Sustainable Food Center Farmers' Market", "name:es": "Mercado Agr\u00edcola de SFC", "opening_hours": "Sa 09:00-13:00", "operator": "Sustainable Food Center", "operator:abbr": "SFC", "phone": "+1-512-236-0074", "short_name": "SFC Farmers' Market", "website": "https://sustainablefoodcenter.org/farmers-market/downtown"}}, {"type": "node", "id": 10869767154, "lat": 30.2653307, "lon": -97.7435454, "tags": {"addr:city": "Austin", "addr:housenumber": "301", "addr:postcode": "78701", "addr:state": "TX", "addr:street": "Congress Avenue", "amenity": "restaurant", "cuisine": "tacqueria", "name": "Tacodeli", "opening_hours": "Mo-Fr 07:00-15:00; Sa-Su 08:00-15:00", "phone": "+1-512-601-6631", "website": "https://locations.tacodeli.com/tacodeli-5346fd3548f4"}}, {"type": "node", "id": 10969167396, "lat": 30.2655244, "lon": -97.7442323, "tags": {"addr:housenumber": "102", "addr:street": "W 3rd St", "amenity": "restaurant", "cuisine": "greek;mexican", "description": "Greek with a hint of Mexican", "name": "ZIKI", "opening_hours": "Mo-Su 10:00-03:00", "website": "https://ziki.kitchen/"}}, {"type": "node", "id": 11071595410, "lat": 30.2658847, "lon": -97.7453973, "tags": {"addr:city": "Austin", "addr:housenumber": "300", "addr:postcode": "78701", "addr:state": "TX", "addr:street": "Colorado Street", "air_conditioning": "yes", "amenity": "restaurant", "bar": "yes", "branch": "Downtown Austin", "check_date": "2023-07-27", "cuisine": "seafood", "name": "Truluck's", "opening_hours": "Mo-Su 16:30-22:00", "phone": "+1-512-482-9000", "website": "https://trulucks.com/locations/downtown-austin-texas/"}}, {"type": "way", "id": 134807229, "nodes": [1481511086, 1481511087, 1481511088, 9414594813, 1481511086], "tags": {"addr:housenumber": "301", "addr:postcode": "78701", "addr:street": "Lavaca Street", "amenity": "restaurant", "building": "retail", "name": "Bob's Steak & Chop House", "opening_hours": "Mo,Tu 16:30-22:00; We,Th 16:30-23:00; Fr,Sa 16:30-24:00"}}, {"type": "way", "id": 328631276, "nodes": [3354445034, 3354445031, 3354445001, 3354445003, 3354445034], "tags": {"addr:city": "Austin", "addr:housenumber": "208", "addr:postcode": "78701", "addr:state": "TX", "addr:street": "West 4th Street", "amenity": "restaurant", "building": "yes", "cuisine": "french", "name": "P\u00e9ch\u00e9", "phone": "+15123798249", "website": "http://www.pecheaustin.com/"}}, {"type": "way", "id": 724582090, "nodes": [6795476806, 6795476807, 8999352177, 6795476808, 6795476809, 8999352176, 6795476806], "tags": {"addr:city": "Austin", "addr:housenumber": "422", "addr:postcode": "78701", "addr:state": "TX", "addr:street": "Guadalupe Street", "addr:unit": "C", "amenity": "cafe", "building": "retail", "building:levels": "1", "cuisine": "american", "name": "Rosen's Bagels", "opening_date": "2019-09-01", "opening_hours": "Mo-Fr 07:00-14:00; Sa-Su 08:00-15:00", "outdoor_seating": "yes", "website": "https://www.rosensbagels.com/"}}, {"type": "way", "id": 1020753276, "nodes": [1481511086, 9414594814, 9414594815, 1481511099, 9414594813, 1481511086], "tags": {"addr:city": "Austin", "addr:housenumber": "301", "addr:postcode": "78701", "addr:state": "TX", "addr:street": "Lavaca Street", "addr:unit": "200", "amenity": "restaurant", "building": "yes", "cuisine": "pizza", "name": "DeSano Pizzeria Napoletana"}}, {"type": "way", "id": 1020753278, "nodes": [9414607026, 9414607029, 9414607030, 9414607031, 9414607026], "tags": {"addr:city": "Austin", "addr:housenumber": "303", "addr:postcode": "78701", "addr:state": "TX", "addr:street": "Colorado Street", "addr:unit": "200", "air_conditioning": "yes", "amenity": "restaurant", "cuisine": "italian", "level": "0", "name": "Red Ash", "outdoor_seating": "no", "phone": "+15123792906", "takeaway": "yes", "website": "http://redashgrill.com/"}}, {"type": "way", "id": 1020754976, "nodes": [9414622822, 9414622823, 1152899993, 1152899989, 9414622822], "tags": {"addr:city": "Austin", "addr:housenumber": "522", "addr:postcode": "78701", "addr:state": "TX", "addr:street": "Congress Avenue", "amenity": "restaurant", "cuisine": "american", "name": "Punch Bowl Social"}}, {"type": "way", "id": 1020979630, "nodes": [9416656304, 9416656305, 9416656306, 9416656303, 9416656304], "tags": {"addr:city": "Austin", "addr:housenumber": "310", "addr:postcode": "78701", "addr:state": "TX", "addr:street": "Colorado Street", "addr:unit": "A", "air_conditioning": "yes", "amenity": "cafe", "building": "yes", "cuisine": "venezuelan", "name": "Cuatro Gato", "outdoor_seating": "yes"}}, {"type": "way", "id": 1021167044, "nodes": [3354471216, 9418356271, 9418356269, 3354471213, 3354471216], "tags": {"amenity": "restaurant", "building": "yes", "cuisine": "italian", "name": "La Traviata", "note": "Temporarily closed", "opening_hours:covid19": "closed"}}, {"type": "way", "id": 1029943785, "nodes": [1152899965, 9494461576, 1152899913, 1152900003, 1152899965], "tags": {"addr:city": "Austin", "addr:housenumber": "501", "addr:postcode": "78701", "addr:state": "TX", "addr:street": "Colorado Street", "air_conditioning": "yes", "amenity": "restaurant", "bar": "yes", "building": "yes", "cuisine": "mexican", "name": "Comedor", "phone": "+15124990977", "website": "https://comedortx.com/"}}]}