{"version": 0.6, "generator": "Overpass API 0.7.61.5 4133829e", "osm3s": {"timestamp_osm_base": "2024-01-28T03:52:45Z", "copyright": "The data included in this document is from www.openstreetmap.org. The data is made available under ODbL."}, "elements": [{"type": "node", "id": 1484010008, "lat": 30.3567746, "lon": -97.7312443, "tags": {"amenity": "restaurant", "cuisine": "american", "name": "Barletts"}}, {"type": "node", "id": 3825357257, "lat": 30.356575, "lon": -97.731169}, {"type": "node", "id": 3825357258, "lat": 30.356665, "lon": -97.731369}, {"type": "node", "id": 3825357259, "lat": 30.356678, "lon": -97.731076}, {"type": "node", "id": 3825357260, "lat": 30.356689, "lon": -97.731101}, {"type": "node", "id": 3825357261, "lat": 30.356799, "lon": -97.731004}, {"type": "node", "id": 3825357262, "lat": 30.356816, "lon": -97.731256}, {"type": "node", "id": 3825357263, "lat": 30.356823, "lon": -97.731112}, {"type": "node", "id": 3825357264, "lat": 30.356824, "lon": -97.731274}, {"type": "node", "id": 3825357265, "lat": 30.356826, "lon": -97.73125}, {"type": "node", "id": 3825357266, "lat": 30.356827, "lon": -97.731253}, {"type": "node", "id": 3825357267, "lat": 30.356833, "lon": -97.731134}, {"type": "node", "id": 3825357268, "lat": 30.356838, "lon": -97.731145}, {"type": "node", "id": 3825357269, "lat": 30.356842, "lon": -97.7311}, {"type": "node", "id": 3825357270, "lat": 30.356854, "lon": -97.731135}, {"type": "node", "id": 3825357271, "lat": 30.35686, "lon": -97.731202}, {"type": "node", "id": 3825357272, "lat": 30.356871, "lon": -97.731227}, {"type": "node", "id": 3825357273, "lat": 30.356879, "lon": -97.731191}, {"type": "node", "id": 3849605319, "lat": 30.3529122, "lon": -97.7306642}, {"type": "node", "id": 3849605427, "lat": 30.3531082, "lon": -97.7310852}, {"type": "node", "id": 3849605443, "lat": 30.3531452, "lon": -97.7305192}, {"type": "node", "id": 3849605558, "lat": 30.3531802, "lon": -97.7305932}, {"type": "node", "id": 3849605573, "lat": 30.3532072, "lon": -97.7306492}, {"type": "node", "id": 3849605592, "lat": 30.3532292, "lon": -97.7305622}, {"type": "node", "id": 3849605603, "lat": 30.3532552, "lon": -97.7306192}, {"type": "node", "id": 3849605625, "lat": 30.3532902, "lon": -97.7308262}, {"type": "node", "id": 3849605628, "lat": 30.3532952, "lon": -97.7308372}, {"type": "node", "id": 3849605759, "lat": 30.3533692, "lon": -97.7307912}, {"type": "node", "id": 3849605780, "lat": 30.3534162, "lon": -97.7308942}, {"type": "node", "id": 3849847072, "lat": 30.355773, "lon": -97.729609}, {"type": "node", "id": 3849847086, "lat": 30.3558, "lon": -97.729747}, {"type": "node", "id": 3849847105, "lat": 30.355833, "lon": -97.729594}, {"type": "node", "id": 3849847109, "lat": 30.355836, "lon": -97.729612}, {"type": "node", "id": 3849847174, "lat": 30.355931, "lon": -97.729588}, {"type": "node", "id": 3849847175, "lat": 30.355931, "lon": -97.729591}, {"type": "node", "id": 3849847200, "lat": 30.355954, "lon": -97.729707}, {"type": "node", "id": 6398598097, "lat": 30.3570449, "lon": -97.7353938, "tags": {"amenity": "restaurant", "cuisine": "indian", "name": "Tarka Indian Kitchen"}}, {"type": "node", "id": 8285719968, "lat": 30.357364, "lon": -97.7311358, "tags": {"addr:city": "Austin", "addr:housenumber": "2438", "addr:postcode": "78757", "addr:state": "TX", "addr:street": "West Anderson Lane", "addr:unit": "D5", "amenity": "restaurant", "brand": "Jason's Deli", "brand:wikidata": "Q16997641", "cuisine": "sandwich", "delivery": "yes", "diet:healthy": "yes", "diet:organic": "yes", "diet:vegetarian": "yes", "name": "Jason's Deli", "opening_hours": "Mo-Su 10:00-22:00", "phone": "+1-512-419-9128", "takeaway": "yes", "website": "https://www.jasonsdeli.com/restaurants/anderson-lane-deli", "wheelchair": "yes"}}, {"type": "way", "id": 379206760, "nodes": [3825357267, 3825357263, 3825357269, 3825357261, 3825357259, 3825357260, 3825357257, 3825357258, 3825357264, 3825357262, 3825357265, 3825357266, 3825357272, 3825357271, 3825357273, 3825357270, 3825357268, 3825357267], "tags": {"addr:housenumber": "2408", "addr:street": "West Anderson Lane", "amenity": "restaurant", "building": "yes", "coa:place_id": "338176", "height": "7.54"}}, {"type": "way", "id": 381794193, "nodes": [3849605625, 3849605573, 3849605603, 3849605592, 3849605558, 3849605443, 3849605319, 3849605427, 3849605780, 3849605759, 3849605628, 3849605625], "tags": {"amenity": "social_centre", "building": "yes", "height": "8.3", "name": "Louis IX Hall"}}, {"type": "way", "id": 381817886, "nodes": [3849847175, 3849847174, 3849847109, 3849847105, 3849847072, 3849847086, 3849847200, 3849847175], "tags": {"addr:housenumber": "2210", "addr:street": "West Anderson Lane", "amenity": "restaurant", "building": "yes", "cuisine": "american", "height": "4.0", "name": "Lone Star Kolaches"}}]}