{"version": 0.6, "generator": "Overpass API 0.7.61.5 4133829e", "osm3s": {"timestamp_osm_base": "2024-01-28T03:50:45Z", "copyright": "The data included in this document is from www.openstreetmap.org. The data is made available under ODbL."}, "elements": [{"type": "node", "id": 919327995, "lat": 30.2415436, "lon": -97.7833214, "tags": {"amenity": "restaurant", "name": "Chinatown"}}, {"type": "node", "id": 3871899069, "lat": 30.2407, "lon": -97.785977, "tags": {"addr:city": "Austin", "addr:housenumber": "3403", "addr:postcode": "78704", "addr:state": "TX", "addr:street": "South Lamar Boulevard", "air_conditioning": "yes", "amenity": "restaurant", "bar": "yes", "cuisine": "pizza;italian;pasta", "internet_access": "wlan", "name": "The Garden"}}, {"type": "node", "id": 4388747248, "lat": 30.241537, "lon": -97.7841603, "tags": {"amenity": "restaurant", "cuisine": "asian", "name": "Michi Ramen"}}, {"type": "node", "id": 6072052063, "lat": 30.241602, "lon": -97.7846524, "tags": {"amenity": "restaurant", "cuisine": "crepe", "name": "Crepe Crazy"}}, {"type": "node", "id": 6072052064, "lat": 30.2413854, "lon": -97.7849729, "tags": {"amenity": "restaurant", "name": "Turf N' Surf Po-Boy"}}, {"type": "node", "id": 6200122785, "lat": 30.2408938, "lon": -97.7852016, "tags": {"amenity": "restaurant", "name": "The Broken Spoke", "opening_hours": "Tu-Sa 16:00-01:00", "website": "https://www.brokenspokeaustintx.net"}}]}