{"version": 0.6, "generator": "Overpass API 0.7.61.5 4133829e", "osm3s": {"timestamp_osm_base": "2023-11-07T05:16:09Z", "copyright": "The data included in this document is from www.openstreetmap.org. The data is made available under ODbL."}, "elements": [{"type": "node", "id": 280760598, "lat": 30.2554618, "lon": -97.7635622}, {"type": "node", "id": 919334307, "lat": 30.252256, "lon": -97.7635926, "tags": {"amenity": "cafe", "brand": "Starbucks", "brand:wikidata": "Q37158", "brand:wikipedia": "en:Starbucks", "contact:website": "https://www.starbucks.com/store-locator/store/12397/s-lamar-collier-1509-south-lamar-blvd-suite-100-austin-tx-78704296", "cuisine": "coffee_shop", "name": "Starbucks", "official_name": "Starbucks Coffee", "takeaway": "yes"}}, {"type": "node", "id": 1667401528, "lat": 30.2555387, "lon": -97.7625208, "tags": {"addr:housenumber": "1100", "addr:postcode": "78704", "addr:street": "South Lamar Boulevard", "addr:unit": "1135", "amenity": "restaurant", "branch": "South Austin: Lamar Union", "brand": "Lick Honest Ice Creams", "brand:website": "https://www.ilikelick.com/", "cuisine": "ice_cream", "name": "Lick Honest Ice Creams", "opening_hours": "Su-Th 12:30-22:00; Fr-Sa 12:30-23:30", "phone": "+1-512-363-5622"}}, {"type": "node", "id": 3281003852, "lat": 30.2525772, "lon": -97.7642612, "tags": {"amenity": "restaurant", "cuisine": "italian", "name": "It's Italian Cucina"}}, {"type": "node", "id": 3281003853, "lat": 30.2523316, "lon": -97.7644892, "tags": {"amenity": "restaurant", "cuisine": "spanish", "name": "El Raval"}}, {"type": "node", "id": 3866034072, "lat": 30.2538637, "lon": -97.7631957}, {"type": "node", "id": 3866034101, "lat": 30.2539626, "lon": -97.7634067}, {"type": "node", "id": 3866034112, "lat": 30.2539423, "lon": -97.7631368}, {"type": "node", "id": 3866034152, "lat": 30.2540524, "lon": -97.7633423}, {"type": "node", "id": 3866035224, "lat": 30.254635, "lon": -97.762528}, {"type": "node", "id": 3866035230, "lat": 30.25466, "lon": -97.762596}, {"type": "node", "id": 3866035233, "lat": 30.254664, "lon": -97.762593}, {"type": "node", "id": 3866035457, "lat": 30.254721, "lon": -97.762477}, {"type": "node", "id": 3866035461, "lat": 30.254746, "lon": -97.762785}, {"type": "node", "id": 3866035470, "lat": 30.254795, "lon": -97.762642}, {"type": "node", "id": 3866035475, "lat": 30.254804, "lon": -97.762637}, {"type": "node", "id": 3866035477, "lat": 30.254806, "lon": -97.762749}, {"type": "node", "id": 3866035481, "lat": 30.254816, "lon": -97.76277}, {"type": "node", "id": 3866035487, "lat": 30.254828, "lon": -97.762734}, {"type": "node", "id": 3866035491, "lat": 30.254832, "lon": -97.762719}, {"type": "node", "id": 3866035493, "lat": 30.254836, "lon": -97.762729}, {"type": "node", "id": 3866035495, "lat": 30.254838, "lon": -97.762757}, {"type": "node", "id": 3866035496, "lat": 30.254839, "lon": -97.762714}, {"type": "node", "id": 3866035810, "lat": 30.2551623, "lon": -97.7616428}, {"type": "node", "id": 3866035836, "lat": 30.2552233, "lon": -97.7617848}, {"type": "node", "id": 3866036073, "lat": 30.2553086, "lon": -97.7617357}, {"type": "node", "id": 4917725342, "lat": 30.2556683, "lon": -97.7639929}, {"type": "node", "id": 4917725346, "lat": 30.2559537, "lon": -97.7632462}, {"type": "node", "id": 4917725348, "lat": 30.256153, "lon": -97.763231}, {"type": "node", "id": 4917725349, "lat": 30.255995, "lon": -97.7633325}, {"type": "node", "id": 8481463742, "lat": 30.2540386, "lon": -97.7633581}, {"type": "node", "id": 8481463743, "lat": 30.2540361, "lon": -97.7633527}, {"type": "node", "id": 8481463744, "lat": 30.2539674, "lon": -97.7631639}, {"type": "node", "id": 8481463745, "lat": 30.253958, "lon": -97.7631699}, {"type": "node", "id": 8481463746, "lat": 30.2538954, "lon": -97.7631668}, {"type": "node", "id": 8481463747, "lat": 30.2538985, "lon": -97.7631734}, {"type": "node", "id": 9447887928, "lat": 30.2560622, "lon": -97.7637398}, {"type": "node", "id": 9447887929, "lat": 30.2561627, "lon": -97.7632512}, {"type": "node", "id": 9447887935, "lat": 30.2563028, "lon": -97.7631611}, {"type": "node", "id": 9447887936, "lat": 30.2563341, "lon": -97.7632264}, {"type": "node", "id": 9447887937, "lat": 30.2563502, "lon": -97.7632161}, {"type": "node", "id": 9447887938, "lat": 30.2563906, "lon": -97.7633005}, {"type": "node", "id": 9447887939, "lat": 30.2563692, "lon": -97.7633143}, {"type": "node", "id": 9447887940, "lat": 30.2563764, "lon": -97.7633295}, {"type": "node", "id": 9447887941, "lat": 30.2559859, "lon": -97.7635804}, {"type": "node", "id": 9447887996, "lat": 30.2547788, "lon": -97.762057}, {"type": "node", "id": 9447887997, "lat": 30.2546751, "lon": -97.7618404}, {"type": "node", "id": 9447887998, "lat": 30.2545459, "lon": -97.7619233}, {"type": "node", "id": 9447887999, "lat": 30.2546496, "lon": -97.7621399}, {"type": "node", "id": 9447901819, "lat": 30.2552476, "lon": -97.7615937}, {"type": "node", "id": 9509530663, "lat": 30.2560463, "lon": -97.7629586, "tags": {"addr:city": "Austin", "addr:housenumber": "1100", "addr:postcode": "78704", "addr:state": "TX", "addr:street": "South Lamar Boulevard", "addr:unit": "2140", "air_conditioning": "yes", "amenity": "restaurant", "cuisine": "korean", "level": "0", "name": "Jjim", "name:ko": "\ucc1c", "opening_hours": "Tu-Th 12:00-15:00, 17:00-21:00; Fr-Sa 12:00-15:00, 17:00-22:00", "outdoor_seating": "yes", "phone": "+1-737-202-4475", "reservation": "yes", "website": "https://www.jjimbbq.com/"}}, {"type": "node", "id": 10563618402, "lat": 30.2556008, "lon": -97.7620108, "tags": {"addr:city": "Austin", "addr:housenumber": "1100", "addr:postcode": "78704", "addr:state": "TX", "addr:street": "South Lamar Boulevard", "addr:unit": "2115", "amenity": "restaurant", "cuisine": "japanese", "name": "Soto", "website": "https://sotosouthlamar.com/"}}, {"type": "node", "id": 10563618404, "lat": 30.25576, "lon": -97.7623743, "tags": {"addr:city": "Austin", "addr:housenumber": "1100", "addr:postcode": "78704", "addr:state": "TX", "addr:street": "South Lamar Boulevard", "addr:unit": "2125", "amenity": "cafe", "cuisine": "coffee_shop", "name": "Medici Roasting", "website": "https://mediciroasting.com/"}}, {"type": "node", "id": 10563618407, "lat": 30.2553704, "lon": -97.7621579, "tags": {"addr:city": "Austin", "addr:housenumber": "1100", "addr:postcode": "78704", "addr:state": "TX", "addr:street": "South Lamar Boulevard", "addr:unit": "1125", "amenity": "restaurant", "cuisine": "asian;vietnamese;thai;lao", "name": "Mandala Kitchen & Bar", "website": "http://mandalakitchenandbar.com/"}}, {"type": "node", "id": 10563618408, "lat": 30.2558239, "lon": -97.7631014, "tags": {"addr:city": "Austin", "addr:housenumber": "1100", "addr:postcode": "78704", "addr:state": "TX", "addr:street": "South Lamar Boulevard", "addr:unit": "1150", "amenity": "restaurant", "cuisine": "southern;texan", "name": "TLC", "phone": "+15125800971", "website": "https://www.tlcaustin.com/"}}, {"type": "way", "id": 383355029, "nodes": [9447901819, 3866035810, 3866035836, 3866036073, 9447901819], "tags": {"addr:city": "Austin", "addr:country": "US", "addr:housenumber": "1105", "addr:postcode": "78704", "addr:state": "TX", "addr:street": "South Lamar Boulevard", "amenity": "cafe", "brand": "Merit Coffee", "brand:website": "https://meritcoffee.com/", "building": "retail", "height": "9.1", "name": "Merit Coffee", "opening_hours": "Mo-Su 07:00-19:00", "phone": "+1-512-906-0010"}}, {"type": "way", "id": 383355317, "nodes": [3866035224, 3866035233, 3866035230, 3866035461, 3866035477, 3866035481, 3866035495, 3866035487, 3866035493, 3866035491, 3866035496, 3866035475, 3866035470, 3866035457, 3866035224], "tags": {"addr:housenumber": "1212", "addr:postcode": "78704", "addr:street": "South Lamar Boulevard", "amenity": "restaurant", "building": "yes", "cuisine": "tex-mex", "height": "6.0", "name": "Maudie's Tex-Mex", "website": "https://www.maudies.com/"}}, {"type": "way", "id": 383355338, "nodes": [3866034101, 8481463742, 8481463743, 3866034152, 8481463744, 8481463745, 3866034112, 8481463746, 8481463747, 3866034072, 3866034101], "tags": {"addr:city": "Austin", "addr:country": "US", "addr:housenumber": "1234", "addr:postcode": "78704", "addr:state": "TX", "addr:street": "South Lamar Boulevard", "amenity": "restaurant", "branch": "South Austin", "brand": "Ramen Tatsu-Ya", "brand:website": "https://ramen-tatsuya.com/", "building": "yes", "cuisine": "noodle;ramen", "height": "6.2", "name": "Ramen Tatsu-ya", "name:ja": "\u30e9\u30fc\u30e1\u30f3\u305f\u3064\u5c4b", "takeaway": "no", "website": "https://www.toasttab.com/ramen-tatsu-ya-south-lamar/v3"}}, {"type": "way", "id": 1024600242, "nodes": [9447887928, 4917725342, 280760598, 4917725346, 4917725349, 4917725348, 9447887929, 9447887935, 9447887936, 9447887937, 9447887938, 9447887939, 9447887940, 9447887941, 9447887928], "tags": {"addr:city": "Austin", "addr:country": "US", "addr:housenumber": "1120", "addr:postcode": "78704", "addr:state": "TX", "addr:street": "South Lamar Boulevard", "amenity": "cinema", "branch": "South Lamar", "brand": "Alamo Drafthouse Cinema", "brand:website": "https://drafthouse.com/", "brand:wikidata": "Q4705954", "brand:wikipedia": "en:Alamo Drafthouse Cinema", "building": "yes", "name": "Alamo Drafthouse Cinema", "website": "https://drafthouse.com/austin/theater/south-lamar", "wikidata": "Q42298382"}}, {"type": "way", "id": 1024600258, "nodes": [9447887999, 9447887996, 9447887997, 9447887998, 9447887999], "tags": {"addr:city": "Austin", "addr:country": "US", "addr:housenumber": "1201", "addr:postcode": "78704", "addr:state": "TX", "addr:street": "South Lamar Boulevard", "amenity": "restaurant", "building": "yes", "contact:facebook": "https://www.facebook.com/oddduckaustin", "contact:instagram": "https://www.instagram.com/oddduckaustin/", "contact:twitter": "https://twitter.com/oddduckaustin", "email": "foh@oddduckaustin.com", "name": "Odd Duck", "opening_hours": "Mo-Su 17:00-21:00; Fr,Sa 16:45-21:30", "phone": "+1-512-433-6521", "website": "https://oddduckaustin.com/"}}]}