{"version": 0.6, "generator": "Overpass API 0.7.61.5 4133829e", "osm3s": {"timestamp_osm_base": "2024-01-27T23:25:27Z", "copyright": "The data included in this document is from www.openstreetmap.org. The data is made available under ODbL."}, "elements": [{"type": "node", "id": 599045257, "lat": 30.221089, "lon": -97.772538, "tags": {"amenity": "restaurant", "cuisine": "tex-mex", "delivery": "no", "name": "Casa Maria's", "takeaway": "yes"}}, {"type": "node", "id": 882493049, "lat": 30.2381148, "lon": -97.7394025, "tags": {"amenity": "restaurant", "cuisine": "indian", "name": "WhipIn", "shop": "convenience"}}, {"type": "node", "id": 919331370, "lat": 30.237152, "lon": -97.7494097, "tags": {"amenity": "restaurant", "cuisine": "mexican", "name": "Curra's Grill"}}, {"type": "node", "id": 919331375, "lat": 30.2371474, "lon": -97.7496672, "tags": {"addr:housenumber": "534", "addr:postcode": "78704-5639", "addr:street": "East Oltorf Street", "amenity": "restaurant", "cuisine": "mediterranean", "name": "Tarbouch Restaurant", "source": "local_knowledge"}}, {"type": "node", "id": 919346675, "lat": 30.2332092, "lon": -97.7648433, "tags": {"addr:housenumber": "3115", "addr:street": "South 1st Street", "amenity": "cafe", "name": "Summermoon Coffee Bar"}}, {"type": "node", "id": 919361274, "lat": 30.2342155, "lon": -97.757589, "tags": {"amenity": "cafe"}}, {"type": "node", "id": 919401944, "lat": 30.2242708, "lon": -97.7634777, "tags": {"amenity": "restaurant", "name": "El Borrego de Oro"}}, {"type": "node", "id": 1480380047, "lat": 30.2349266, "lon": -97.7573033, "tags": {"addr:housename": "2728 South Congress Ave", "addr:housenumber": "2728", "addr:postcode": "78704", "addr:street": "South Congress Avenue", "amenity": "restaurant", "cuisine": "cuban", "name": "Habana Restaurant and Bar", "source": "local_knowledge", "website": "https://www.habanaaustin.com/"}}, {"type": "node", "id": 1481347059, "lat": 30.2325951, "lon": -97.7406066, "tags": {"addr:housename": "1605 E. Oltorf", "addr:housenumber": "1605", "addr:postcode": "78741", "addr:street": "East Oltorf", "amenity": "restaurant", "cuisine": "indian", "name": "Tandoori Bistro", "source": "local_knowledge", "website": "http://tandooribistroaustin.net/"}}, {"type": "node", "id": 1481388984, "lat": 30.2331421, "lon": -97.7586735, "tags": {"addr:housenumber": "2910", "addr:postcode": "78704", "addr:street": "South Congress Ave", "amenity": "restaurant", "cuisine": "mexican", "name": "El Gallo Mexican Restaurant", "phone": "+1-512-444-2205", "source": "local_knowledge"}}, {"type": "node", "id": 1481848682, "lat": 30.2266199, "lon": -97.7622847, "tags": {"amenity": "restaurant", "name": "El Flaco Cafe"}}, {"type": "node", "id": 1701907426, "lat": 30.2012416, "lon": -97.7684727, "tags": {"amenity": "cafe", "branch": "Company", "brand": "Starbucks", "brand:wikidata": "Q37158", "cuisine": "coffee_shop", "name": "Starbucks", "official_name": "Starbucks Coffee", "takeaway": "yes"}}, {"type": "node", "id": 1992134473, "lat": 30.2295027, "lon": -97.7531072}, {"type": "node", "id": 1992134478, "lat": 30.2294303, "lon": -97.7531844}, {"type": "node", "id": 1992134507, "lat": 30.2292866, "lon": -97.7531706}, {"type": "node", "id": 1992134523, "lat": 30.2294721, "lon": -97.7531528}, {"type": "node", "id": 1992134532, "lat": 30.22925, "lon": -97.7531314}, {"type": "node", "id": 1992134564, "lat": 30.2293823, "lon": -97.7528497}, {"type": "node", "id": 1992134599, "lat": 30.229382, "lon": -97.7531986}, {"type": "node", "id": 1992134602, "lat": 30.2294304, "lon": -97.7528639}, {"type": "node", "id": 1992134606, "lat": 30.2293323, "lon": -97.7531938}, {"type": "node", "id": 1992134616, "lat": 30.2292267, "lon": -97.7529667}, {"type": "node", "id": 1992134618, "lat": 30.2292183, "lon": -97.7530236}, {"type": "node", "id": 1992134622, "lat": 30.2292871, "lon": -97.7528774}, {"type": "node", "id": 1992134632, "lat": 30.2292264, "lon": -97.7530806}, {"type": "node", "id": 1992134637, "lat": 30.2295187, "lon": -97.7529953}, {"type": "node", "id": 1992134661, "lat": 30.2295187, "lon": -97.7530528}, {"type": "node", "id": 1992134713, "lat": 30.2295026, "lon": -97.7529409}, {"type": "node", "id": 1992134737, "lat": 30.229472, "lon": -97.7528954}, {"type": "node", "id": 1992134748, "lat": 30.2292505, "lon": -97.7529162}, {"type": "node", "id": 1992134769, "lat": 30.2293327, "lon": -97.7528544}, {"type": "node", "id": 2267077922, "lat": 30.2204769, "lon": -97.7649008, "tags": {"addr:street": "4201 South Congress Avenue #4", "amenity": "restaurant", "cuisine": "mexican", "name": "Taqueria Chapala"}}, {"type": "node", "id": 2785199834, "lat": 30.2004116, "lon": -97.7637844, "tags": {"addr:housenumber": "5510", "addr:street": "I 35 Frontage Road", "amenity": "restaurant", "contact:phone": "+1-512-383-8681", "cuisine": "sushi", "name": "Umi Sushi Bar & Grill", "website": "http://umiaustin.menufy.com/"}}, {"type": "node", "id": 2841505444, "lat": 30.2152705, "lon": -97.7678877, "tags": {"amenity": "restaurant", "cuisine": "mexican", "name": "Villa Mexico"}}, {"type": "node", "id": 3190877898, "lat": 30.2326024, "lon": -97.7562269, "tags": {"addr:housenumber": "3001", "addr:street": "South Congress Avenue", "amenity": "cafe", "cuisine": "coffee_shop", "name": "Jo's Coffee", "opening_hours:covid19": "closed"}}, {"type": "node", "id": 3506566405, "lat": 30.2332215, "lon": -97.7425765, "tags": {"amenity": "restaurant", "brand": "Denny's", "brand:wikidata": "Q1189695", "cuisine": "american", "name": "Denny's", "source": "personal experince"}}, {"type": "node", "id": 3506571688, "lat": 30.2336572, "lon": -97.7423539, "tags": {"amenity": "cafe", "brand": "Starbucks", "brand:wikidata": "Q37158", "contact:website": "https://www.starbucks.com/store-locator/store/12495/i-35-oltorf-2300-s-ih-35-south-austin-tx-787044447-us", "cuisine": "coffee_shop", "name": "Starbucks", "official_name": "Starbucks Coffee", "takeaway": "yes"}}, {"type": "node", "id": 3860043712, "lat": 30.236697, "lon": -97.762763}, {"type": "node", "id": 3860043726, "lat": 30.236711, "lon": -97.762716}, {"type": "node", "id": 3860043734, "lat": 30.236725, "lon": -97.762747}, {"type": "node", "id": 3860043752, "lat": 30.236743, "lon": -97.762865}, {"type": "node", "id": 3860043753, "lat": 30.236745, "lon": -97.762696}, {"type": "node", "id": 3860043766, "lat": 30.236759, "lon": -97.762727}, {"type": "node", "id": 3860043776, "lat": 30.236787, "lon": -97.76271}, {"type": "node", "id": 3860043805, "lat": 30.236824, "lon": -97.762793}, {"type": "node", "id": 3860043810, "lat": 30.2368313, "lon": -97.7628096}, {"type": "node", "id": 3866302092, "lat": 30.239126, "lon": -97.753592}, {"type": "node", "id": 3866302093, "lat": 30.23914, "lon": -97.753654}, {"type": "node", "id": 3866302094, "lat": 30.239156, "lon": -97.753642}, {"type": "node", "id": 3866302095, "lat": 30.239176, "lon": -97.753714}, {"type": "node", "id": 3866302096, "lat": 30.239199, "lon": -97.753534}, {"type": "node", "id": 3866302097, "lat": 30.239209, "lon": -97.753688}, {"type": "node", "id": 3866302098, "lat": 30.239229, "lon": -97.753583}, {"type": "node", "id": 3866302099, "lat": 30.239247, "lon": -97.753569}, {"type": "node", "id": 3866302100, "lat": 30.239251, "lon": -97.753758}, {"type": "node", "id": 3866302101, "lat": 30.239264, "lon": -97.753668}, {"type": "node", "id": 3866302102, "lat": 30.239267, "lon": -97.753637}, {"type": "node", "id": 3866302103, "lat": 30.239277, "lon": -97.75363}, {"type": "node", "id": 3866302104, "lat": 30.239279, "lon": -97.753656}, {"type": "node", "id": 3866302105, "lat": 30.239281, "lon": -97.753626}, {"type": "node", "id": 3866302106, "lat": 30.239296, "lon": -97.753722}, {"type": "node", "id": 3875469697, "lat": 30.2270662, "lon": -97.781204}, {"type": "node", "id": 3875469737, "lat": 30.2271326, "lon": -97.781341}, {"type": "node", "id": 3875469761, "lat": 30.2271705, "lon": -97.7811407}, {"type": "node", "id": 3875469802, "lat": 30.2272387, "lon": -97.7812784}, {"type": "node", "id": 3875489970, "lat": 30.2149797, "lon": -97.7533832}, {"type": "node", "id": 3875489983, "lat": 30.2150017, "lon": -97.7534519}, {"type": "node", "id": 3875489987, "lat": 30.2150097, "lon": -97.7534469}, {"type": "node", "id": 3875490004, "lat": 30.2150479, "lon": -97.7533403}, {"type": "node", "id": 3875490028, "lat": 30.2150819, "lon": -97.7536224}, {"type": "node", "id": 3875490031, "lat": 30.2150917, "lon": -97.7536163}, {"type": "node", "id": 3875490049, "lat": 30.2151268, "lon": -97.7536909}, {"type": "node", "id": 3875490051, "lat": 30.2151299, "lon": -97.7535145}, {"type": "node", "id": 3875490055, "lat": 30.2151379, "lon": -97.7535094}, {"type": "node", "id": 3875490056, "lat": 30.2151395, "lon": -97.7535348}, {"type": "node", "id": 3875490062, "lat": 30.2151475, "lon": -97.7535298}, {"type": "node", "id": 3875490086, "lat": 30.2151932, "lon": -97.7536491}, {"type": "node", "id": 3875510999, "lat": 30.196712, "lon": -97.76765}, {"type": "node", "id": 3875511004, "lat": 30.196735, "lon": -97.767592}, {"type": "node", "id": 3875511009, "lat": 30.196751, "lon": -97.767618}, {"type": "node", "id": 3875511019, "lat": 30.196793, "lon": -97.767784}, {"type": "node", "id": 3875511028, "lat": 30.196821, "lon": -97.767522}, {"type": "node", "id": 3875511029, "lat": 30.196833, "lon": -97.767751}, {"type": "node", "id": 3875511031, "lat": 30.196836, "lon": -97.767547}, {"type": "node", "id": 3875511041, "lat": 30.196895, "lon": -97.7675}, {"type": "node", "id": 3875511042, "lat": 30.196901, "lon": -97.767863}, {"type": "node", "id": 3875511049, "lat": 30.196962, "lon": -97.767813}, {"type": "node", "id": 3875511051, "lat": 30.196974, "lon": -97.767833}, {"type": "node", "id": 3875511052, "lat": 30.19699, "lon": -97.76779}, {"type": "node", "id": 3875511053, "lat": 30.197003, "lon": -97.76781}, {"type": "node", "id": 3875511061, "lat": 30.197045, "lon": -97.767746}, {"type": "node", "id": 3875511064, "lat": 30.197063, "lon": -97.767116}, {"type": "node", "id": 3875511065, "lat": 30.197066, "lon": -97.767144}, {"type": "node", "id": 3875511066, "lat": 30.197068, "lon": -97.767089}, {"type": "node", "id": 3875511067, "lat": 30.197072, "lon": -97.767161}, {"type": "node", "id": 3875511071, "lat": 30.19708, "lon": -97.767065}, {"type": "node", "id": 3875511074, "lat": 30.197086, "lon": -97.767183}, {"type": "node", "id": 3875511077, "lat": 30.197098, "lon": -97.767047}, {"type": "node", "id": 3875511078, "lat": 30.197102, "lon": -97.767021}, {"type": "node", "id": 3875511079, "lat": 30.197105, "lon": -97.767199}, {"type": "node", "id": 3875511080, "lat": 30.197112, "lon": -97.767038}, {"type": "node", "id": 3875511082, "lat": 30.197127, "lon": -97.767034}, {"type": "node", "id": 3875511083, "lat": 30.197128, "lon": -97.767207}, {"type": "node", "id": 3875511086, "lat": 30.197144, "lon": -97.767314}, {"type": "node", "id": 3875511087, "lat": 30.197152, "lon": -97.767207}, {"type": "node", "id": 3875511088, "lat": 30.197154, "lon": -97.766885}, {"type": "node", "id": 3875511092, "lat": 30.197172, "lon": -97.766894}, {"type": "node", "id": 3875511093, "lat": 30.197175, "lon": -97.767199}, {"type": "node", "id": 3875511098, "lat": 30.197192, "lon": -97.766841}, {"type": "node", "id": 3875511099, "lat": 30.197194, "lon": -97.767182}, {"type": "node", "id": 3875511108, "lat": 30.197229, "lon": -97.767357}, {"type": "node", "id": 3875511109, "lat": 30.19723, "lon": -97.766823}, {"type": "node", "id": 3875511123, "lat": 30.19727, "lon": -97.767249}, {"type": "node", "id": 3875511130, "lat": 30.197291, "lon": -97.76726}, {"type": "node", "id": 3875511135, "lat": 30.197309, "lon": -97.767212}, {"type": "node", "id": 3875511139, "lat": 30.197321, "lon": -97.766933}, {"type": "node", "id": 3875511145, "lat": 30.19733, "lon": -97.766937}, {"type": "node", "id": 3875511147, "lat": 30.197333, "lon": -97.766929}, {"type": "node", "id": 3875511148, "lat": 30.197341, "lon": -97.766879}, {"type": "node", "id": 3875511149, "lat": 30.197346, "lon": -97.767231}, {"type": "node", "id": 3875511150, "lat": 30.19737, "lon": -97.767167}, {"type": "node", "id": 3875511152, "lat": 30.197379, "lon": -97.767058}, {"type": "node", "id": 3875511155, "lat": 30.197399, "lon": -97.767181}, {"type": "node", "id": 3875511157, "lat": 30.197409, "lon": -97.76698}, {"type": "node", "id": 3875511159, "lat": 30.197413, "lon": -97.766969}, {"type": "node", "id": 3875511173, "lat": 30.197435, "lon": -97.767086}, {"type": "node", "id": 3875511254, "lat": 30.197627, "lon": -97.770119}, {"type": "node", "id": 3875511312, "lat": 30.197732, "lon": -97.769992}, {"type": "node", "id": 3875511325, "lat": 30.197748, "lon": -97.770009}, {"type": "node", "id": 3875511377, "lat": 30.197859, "lon": -97.76973}, {"type": "node", "id": 3875511380, "lat": 30.19786, "lon": -97.769709}, {"type": "node", "id": 3875511383, "lat": 30.197866, "lon": -97.769745}, {"type": "node", "id": 3875511384, "lat": 30.197868, "lon": -97.769694}, {"type": "node", "id": 3875511393, "lat": 30.197877, "lon": -97.769758}, {"type": "node", "id": 3875511396, "lat": 30.197882, "lon": -97.769683}, {"type": "node", "id": 3875511405, "lat": 30.197894, "lon": -97.769681}, {"type": "node", "id": 3875511406, "lat": 30.197894, "lon": -97.769762}, {"type": "node", "id": 3875511420, "lat": 30.197906, "lon": -97.769684}, {"type": "node", "id": 3875511423, "lat": 30.197909, "lon": -97.765505}, {"type": "node", "id": 3875511426, "lat": 30.197913, "lon": -97.769759}, {"type": "node", "id": 3875511430, "lat": 30.197924, "lon": -97.769697}, {"type": "node", "id": 3875511435, "lat": 30.197926, "lon": -97.769749}, {"type": "node", "id": 3875511440, "lat": 30.197931, "lon": -97.765596}, {"type": "node", "id": 3875511443, "lat": 30.197933, "lon": -97.770454}, {"type": "node", "id": 3875511445, "lat": 30.197935, "lon": -97.769732}, {"type": "node", "id": 3875511448, "lat": 30.197937, "lon": -97.765444}, {"type": "node", "id": 3875511457, "lat": 30.197953, "lon": -97.765471}, {"type": "node", "id": 3875511458, "lat": 30.197953, "lon": -97.765578}, {"type": "node", "id": 3875511461, "lat": 30.197958, "lon": -97.769756}, {"type": "node", "id": 3875511465, "lat": 30.19796, "lon": -97.765645}, {"type": "node", "id": 3875511474, "lat": 30.197971, "lon": -97.765636}, {"type": "node", "id": 3875511501, "lat": 30.198012, "lon": -97.769621}, {"type": "node", "id": 3875511503, "lat": 30.198014, "lon": -97.765382}, {"type": "node", "id": 3875511509, "lat": 30.198022, "lon": -97.76572}, {"type": "node", "id": 3875511517, "lat": 30.198032, "lon": -97.765412}, {"type": "node", "id": 3875511542, "lat": 30.198063, "lon": -97.765688}, {"type": "node", "id": 3875511544, "lat": 30.198065, "lon": -97.765691}, {"type": "node", "id": 3875511552, "lat": 30.198075, "lon": -97.765377}, {"type": "node", "id": 3875511564, "lat": 30.1981, "lon": -97.765418}, {"type": "node", "id": 3875511566, "lat": 30.198103, "lon": -97.769538}, {"type": "node", "id": 3875511583, "lat": 30.198131, "lon": -97.765393}, {"type": "node", "id": 3875511601, "lat": 30.198165, "lon": -97.769486}, {"type": "node", "id": 3875511604, "lat": 30.198175, "lon": -97.765604}, {"type": "node", "id": 3875511605, "lat": 30.198175, "lon": -97.769496}, {"type": "node", "id": 3875511610, "lat": 30.198185, "lon": -97.765621}, {"type": "node", "id": 3875511611, "lat": 30.198187, "lon": -97.765619}, {"type": "node", "id": 3875511625, "lat": 30.198209, "lon": -97.765659}, {"type": "node", "id": 3875511632, "lat": 30.198219, "lon": -97.765649}, {"type": "node", "id": 3875511644, "lat": 30.198242, "lon": -97.765576}, {"type": "node", "id": 3875511645, "lat": 30.198243, "lon": -97.765656}, {"type": "node", "id": 3875511649, "lat": 30.198246, "lon": -97.765639}, {"type": "node", "id": 3875511662, "lat": 30.198264, "lon": -97.765582}, {"type": "node", "id": 3875511669, "lat": 30.198272, "lon": -97.765644}, {"type": "node", "id": 3875511675, "lat": 30.19828, "lon": -97.765586}, {"type": "node", "id": 3875511751, "lat": 30.198372, "lon": -97.769256}, {"type": "node", "id": 3875511754, "lat": 30.198375, "lon": -97.769214}, {"type": "node", "id": 3875511769, "lat": 30.198392, "lon": -97.769233}, {"type": "node", "id": 3875511842, "lat": 30.198487, "lon": -97.769078}, {"type": "node", "id": 3875512096, "lat": 30.198792, "lon": -97.769412}, {"type": "node", "id": 3875527053, "lat": 30.2002752, "lon": -97.7861963, "tags": {"addr:housenumber": "6400", "addr:postcode": "78745", "addr:street": "South 1st Street", "amenity": "restaurant", "name": "DK sushi & seoul korean"}}, {"type": "node", "id": 4906380122, "lat": 30.2318432, "lon": -97.7356141, "tags": {"addr:postcode": "78741", "amenity": "cafe", "cuisine": "coffee_shop;breakfast;crepe", "name": "Caf\u00e9 Cr\u00e8me", "opening_hours": "Mo-Fr 07:00-18:00; Sa-Su 08:00-18:00", "phone": "+1-512-710-9473", "website": "https://cafecremeaustin.com/"}}, {"type": "node", "id": 5515761537, "lat": 30.1972447, "lon": -97.7673156}, {"type": "node", "id": 5515761538, "lat": 30.1971584, "lon": -97.7672759}, {"type": "node", "id": 5837224750, "lat": 30.2186764, "lon": -97.7656482, "tags": {"addr:city": "Austin", "addr:country": "US", "addr:housenumber": "4329", "addr:postcode": "78745", "addr:state": "TX", "addr:street": "South Congress Avenue", "amenity": "restaurant", "cuisine": "mexican", "name": "Kings Tacos", "opening_hours": "Mo-Fr 07:00-14:00; Sa 08:00-14:00", "phone": "+1-737-333-0135"}}, {"type": "node", "id": 7143720377, "lat": 30.2291299, "lon": -97.7840817, "tags": {"amenity": "restaurant", "name": "Sundaze"}}, {"type": "node", "id": 9095873629, "lat": 30.228039, "lon": -97.7530845, "tags": {"air_conditioning": "yes", "amenity": "restaurant", "bar": "no", "brand": "Bonapitite", "brewery": "no", "capacity": "40", "cuisine": "pizza;grill;salad;sandwich", "delivery": "no", "description": "St. Edward's University Dinning Hall- MASK REQUIRED", "name": "Hunt Dinning Hall", "opening_hours": "Mo-Su 06:00-21:00", "opening_hours:covid19": "restricted", "website": "https://www.stedwards.edu/campus-living/dining"}}, {"type": "node", "id": 9306865278, "lat": 30.2381857, "lon": -97.756032}, {"type": "node", "id": 9306865281, "lat": 30.2382315, "lon": -97.756108}, {"type": "node", "id": 9306865282, "lat": 30.2381427, "lon": -97.7561795}, {"type": "node", "id": 9306865283, "lat": 30.2380962, "lon": -97.7561066}, {"type": "node", "id": 9701935997, "lat": 30.1980845, "lon": -97.7656756, "tags": {"entrance": "main"}}, {"type": "node", "id": 9721771802, "lat": 30.2367875, "lon": -97.762838, "tags": {"access": "permissive", "door": "hinged", "entrance": "main"}}, {"type": "node", "id": 9721771803, "lat": 30.2367568, "lon": -97.762857}, {"type": "node", "id": 11291133571, "lat": 30.1972955, "lon": -97.7437584, "tags": {"amenity": "restaurant", "name": "Tipicos Hondurenos"}}, {"type": "node", "id": 11336507421, "lat": 30.2101058, "lon": -97.7868289, "tags": {"amenity": "restaurant", "cuisine": "pizza", "name": "Milano Pizza"}}, {"type": "way", "id": 188589645, "nodes": [1992134473, 1992134523, 1992134478, 1992134599, 1992134606, 1992134507, 1992134532, 1992134632, 1992134618, 1992134616, 1992134748, 1992134622, 1992134769, 1992134564, 1992134602, 1992134737, 1992134713, 1992134637, 1992134661, 1992134473], "tags": {"addr:state": "TX", "amenity": "theatre", "building": "yes", "ele": "203", "gnis:county_name": "Travis", "gnis:feature_id": "2360763", "gnis:import_uuid": "57871b70-0100-4405-bb30-88b2e001a944", "gnis:reviewed": "no", "name": "Mary Moody Northern Theater", "operator": "St. Edward's University", "source": "USGS Geonames"}}, {"type": "way", "id": 382785501, "nodes": [3860043805, 3860043776, 3860043766, 3860043753, 3860043726, 3860043734, 3860043712, 3860043752, 9721771803, 9721771802, 3860043810, 3860043805], "tags": {"addr:city": "Austin", "addr:housenumber": "2809", "addr:postcode": "78704", "addr:state": "TX", "addr:street": "South 1st Street", "amenity": "restaurant", "building": "yes", "cuisine": "pizza", "height": "5.7", "name": "Show Me Pizza", "phone": "+1-512-551-2657", "website": "https://www.showmepizza.com"}}, {"type": "way", "id": 383379053, "nodes": [3866302103, 3866302105, 3866302099, 3866302098, 3866302096, 3866302092, 3866302094, 3866302093, 3866302095, 3866302097, 3866302100, 3866302106, 3866302101, 3866302104, 3866302102, 3866302103], "tags": {"amenity": "restaurant", "bar": "yes", "building": "yes", "cuisine": "greek", "height": "12.2", "name": "Freddo ATX", "not:brand:wikidata": "Q28823999"}}, {"type": "way", "id": 384253583, "nodes": [3875469697, 3875469737, 3875469802, 3875469761, 3875469697], "tags": {"addr:city": "Austin", "addr:housenumber": "1333", "addr:postcode": "78704", "addr:state": "TX", "addr:street": "West Ben White Boulevard", "amenity": "restaurant", "building": "yes", "building:levels": "1", "capacity": "50", "delivery": "no", "height": "5.9", "name": "Taqueria la Escondida #3", "outdoor_seating": "no", "phone": "+1 (512) 707-1688", "smoking": "no", "takeaway": "yes"}}, {"type": "way", "id": 384255621, "nodes": [3875490056, 3875490062, 3875490055, 3875490051, 3875490004, 3875489970, 3875489987, 3875489983, 3875490028, 3875490031, 3875490049, 3875490086, 3875490056], "tags": {"addr:city": "Austin", "addr:housenumber": "4118", "addr:postcode": "78745", "addr:state": "TX", "addr:street": "I 35 Frontage Road", "air_conditioning": "yes", "amenity": "restaurant", "building": "yes", "check_date": "2023-11-23", "cuisine": "mexican;seafood", "height": "10.5", "name": "La Catedral del Marisco #3", "opening_hours": "07:00-22:00", "payment:american_express": "yes", "payment:cash": "yes", "payment:discover_card": "yes", "payment:mastercard": "yes", "payment:visa": "yes", "phone": "+1-512-792-9300", "website": "https://www.lacatedraldelmarisco3.com/", "wheelchair": "yes"}}, {"type": "way", "id": 384258139, "nodes": [3875511041, 3875511031, 3875511028, 3875511004, 3875511009, 3875510999, 3875511019, 3875511029, 3875511042, 3875511049, 3875511051, 3875511053, 3875511052, 3875511061, 3875511041], "tags": {"addr:city": "Austin", "addr:housenumber": "901", "addr:postcode": "78745", "addr:state": "TX", "addr:street": "Little Texas Lane", "addr:unit": "D", "amenity": "restaurant", "brand": "Buffalo Wild Wings", "brand:wikidata": "Q509255", "building": "yes", "cuisine": "wings", "height": "8.7", "name": "Buffalo Wild Wings", "short_name": "BW3"}}, {"type": "way", "id": 384258159, "nodes": [3875511662, 3875511644, 3875511583, 3875511564, 3875511552, 3875511517, 3875511503, 3875511448, 3875511457, 3875511423, 3875511458, 3875511440, 3875511465, 3875511474, 3875511509, 3875511542, 3875511544, 9701935997, 3875511604, 3875511610, 3875511611, 3875511625, 3875511632, 3875511645, 3875511649, 3875511669, 3875511675, 3875511662], "tags": {"addr:city": "Austin", "addr:housenumber": "701", "addr:postcode": "78745", "addr:state": "TX", "addr:street": "East Stassney Lane", "addr:unit": "B", "air_conditioning": "yes", "alt_name": "Dimassi;Dimassis;Dimassi\u2018s", "amenity": "restaurant", "bar": "no", "building": "yes", "diet:halal": "yes", "diet:meat": "yes", "diet:vegetarian": "yes", "height": "9.7", "microbrewery": "no", "name": "Dimassi's Mediterranean Buffet", "outdoor_seating": "no", "phone": "+1-737-209-0296", "website": "https://dimassis.com", "wheelchair": "yes"}}, {"type": "way", "id": 384258161, "nodes": [3875511751, 3875511605, 3875511601, 3875511566, 3875511501, 3875511430, 3875511420, 3875511405, 3875511396, 3875511384, 3875511380, 3875511377, 3875511383, 3875511393, 3875511406, 3875511426, 3875511435, 3875511445, 3875511461, 3875511325, 3875511312, 3875511254, 3875511443, 3875512096, 3875511842, 3875511754, 3875511769, 3875511751], "tags": {"addr:city": "Austin", "addr:housenumber": "901", "addr:postcode": "78745", "addr:state": "TX", "addr:street": "Little Texas Lane", "amenity": "cinema", "brand": "Regal Cinemas", "brand:wikidata": "Q835638", "building": "yes", "building:levels": "1", "height": "32.4", "name": "Regal Metropolitan Stadium 14", "short_name": "Regal", "wikidata": "Q42298509"}}, {"type": "way", "id": 384258176, "nodes": [3875511157, 3875511159, 3875511147, 3875511145, 3875511139, 3875511148, 3875511109, 3875511098, 3875511092, 3875511088, 3875511078, 3875511082, 3875511080, 3875511077, 3875511071, 3875511066, 3875511064, 3875511065, 3875511067, 3875511074, 3875511079, 3875511083, 3875511087, 3875511093, 3875511099, 5515761538, 3875511086, 3875511108, 5515761537, 3875511123, 3875511130, 3875511135, 3875511149, 3875511150, 3875511155, 3875511173, 3875511152, 3875511157], "tags": {"addr:city": "Austin", "addr:housenumber": "901-C", "addr:postcode": "78745", "addr:state": "TX", "addr:street": "Little Texas Lane", "amenity": "restaurant", "building": "yes", "building:levels": "1", "cuisine": "tex-mex", "height": "9.6", "name": "Trudy's South Star"}}, {"type": "way", "id": 1008686099, "nodes": [9306865278, 9306865281, 9306865282, 9306865283, 9306865278], "tags": {"addr:city": "Austin", "addr:housenumber": "2510", "addr:postcode": "78704", "addr:state": "TX", "addr:street": "South Congress Avenue", "amenity": "cafe", "building": "yes", "name": "Simona's Coffee + Cocktails", "outdoor_seating": "yes"}}]}